placeId,place_name,introduction,category_name,categoryId,latitude,longitude,postcode,thumbnail_url,tags,province_Id,province_name,district_Id,district_name,sub_district_Id,sub_district_name,updated_at
1858,วัดสระเกศ ราชวรมหาวิหาร (วัดภูเขาทอง),วัดสระเกศ หรือ วัดภูเขาทอง (Temple of the Golden Mount Bangkok) เป็นวัดโบราณสมัยกรุงศรีอยุธยา ตั้งอยู่ริมคลองมหานาค เขตป้อมปราบศัตรูพ่าย มีจุดเด่นคือ พระบรมบรรพต หรือที่เรียกกันว่า ภูเขาทอง,สถานที่ท่องเที่ยว,3,13.75389,100.50841,10100,https://dmc.tatdataapi.io/assets/04e68492-da7d-4295-af0c-e55009d26cd4.jpeg,,219.0,กรุงเทพมหานคร,1008.0,ป้อมปราบศัตรูพ่าย,100804.0,บ้านบาตร,2024-12-20T09:19:14.997Z
33400,ศาลเจ้าพ่อ-เจ้าแม่ชุมแสง,,สถานที่ท่องเที่ยว,3,15.89933,100.30886,60120,https://dmc.tatdataapi.io/assets/3b6743d6-dc9f-45c3-8a43-28b68263f481.jpeg,ศาลเจ้าพ่อเจ้าแม่ชุมแสง,107.0,นครสวรรค์,6003.0,ชุมแสง,600301.0,ชุมแสง,2024-12-16T08:31:55.955Z
33586,ตลาดเก่าร้อยปีชุมแสง,,สถานที่ท่องเที่ยว,3,15.89541,100.30847,60120,,"ตลาดเก่าร้อยปีชุมแสง,นครสวรรค์",107.0,นครสวรรค์,6003.0,ชุมแสง,600301.0,ชุมแสง,2024-12-16T08:24:13.337Z
33885,ตลาดเจ้าค่ะ,ตั้งอยู่ตำบลเขาดิน บริเวณริมแม่น้ำปิงด้านหน้าวัดพระหน่อธรรินทรใกล้วารินคงคาราม (วัดเขาดินใต้) เป็นตลาดชุมชนที่มีบรรยากาศแบบย้อนยุค พ่อค้าแม่ค้าจะแต่งกายด้วยชุดไทยโบราณและพูดจาลงท้ายด้วยคำว่า “เจ้าค่ะ” ซึ่งถือเป็นเอกลักษณ์ของตลาดแห่งนี้,สถานที่ท่องเที่ยว,3,15.81700,100.07715,60230,,ตลาดเจ้าค่ะ,107.0,นครสวรรค์,6006.0,เก้าเลี้ยว,600604.0,เขาดิน,2024-12-16T08:05:51.745Z
33325,อุทยานเทวสถานพระพิฆเนศ,,สถานที่ท่องเที่ยว,3,15.64627,100.10917,60000,https://dmc.tatdataapi.io/assets/f8d3fde8-b638-4e8e-87aa-de8f0e0093e7.jpeg,,107.0,นครสวรรค์,6001.0,เมืองนครสวรรค์,600102.0,กลางแดด,2024-12-16T07:49:49.078Z
33423,วัดศรีอุทุมพร หรือวัดหลวงพ่อจ้อย,ตั้งอยู่ตำบลหนองกรด เดิมชาวบ้านเรียกว่า วัดวังเดื่อ สร้างขึ้นเมื่อปี พ.ศ. 2485 โดยมีพระครูจ้อย จนฺทสุวณฺโณ พระนักพัฒนาที่ได้รับการขนานนามว่าเป็นเทพเจ้าแห่งเมืองปากน้ำโพ เป็นผู้ปกครองวัดมาตั้งแต่แรกเริ่ม,สถานที่ท่องเที่ยว,3,15.74610,99.94819,60240,https://dmc.tatdataapi.io/assets/f933b2be-3e65-41fc-b90a-84143fc00479.jpeg,วัดศรีอุทุมพร,107.0,นครสวรรค์,6001.0,เมืองนครสวรรค์,600114.0,หนองกรด,2024-12-16T07:44:53.554Z
3437,วัดคีรีวงศ์,,สถานที่ท่องเที่ยว,3,15.28954,100.42618,60190,https://dmc.tatdataapi.io/assets/a407a51d-adb8-463b-847b-719337c8399e.jpeg,วัดคีรีวงศ์,107.0,นครสวรรค์,6012.0,ตากฟ้า,601207.0,เขาชายธง,2024-12-16T07:39:12.464Z
950,วัดวรนาถบรรพต พระอารามหลวง (เขากบ),ตั้งอยู่บนยอดเขาและเชิงเขากบ เดิมชื่อว่าวัดกบ หรือวัดเขากบ เป็นวัดเก่าแก่ของนครสวรรค์,สถานที่ท่องเที่ยว,3,15.71536,100.13395,60000,https://dmc.tatdataapi.io/assets/956e0844-d02d-4b3a-86b2-8c17807e4175.jpg,,107.0,นครสวรรค์,6001.0,เมืองนครสวรรค์,600101.0,ปากน้ำโพ,2024-12-12T04:16:30.790Z
33331,อาคารสัญลักษณ์ต้นแม่น้ำเจ้าพระยา (พาสาน),ตั้งอยู่บริเวณเกาะยม ซึ่งเป็นจุดกำเนิดแม่น้ำเจ้าพระยา สร้างขึ้นเพื่อเป็นแหล่งท่องเที่ยว แหล่งเรียนรู้ประวัติศาสตร์และวัฒนธรรม ชื่อ “พาสาน” มีที่มาจากคำว่า “ผสาน” หมายถึง การรวมกัน แต่พาสานคือการพาคนเข้าไปสานให้เกิดการผสมผสานกันระหว่างคน สถานที่ และช่วงเวลา,สถานที่ท่องเที่ยว,3,15.70138,100.14273,60000,https://dmc.tatdataapi.io/assets/ed2aace0-14bc-4869-bc3a-4dac66388c52.jpeg,,107.0,นครสวรรค์,6001.0,เมืองนครสวรรค์,600101.0,ปากน้ำโพ,2024-12-12T03:35:56.257Z
6161,ศาลเจ้าพ่อเทพารักษ์-เจ้าแม่ทับทิม,,สถานที่ท่องเที่ยว,3,15.69957,100.14241,60000,https://dmc.tatdataapi.io/assets/7867a565-9de7-4386-8e6c-fbfa1b01c70a.jpeg,"ศาลเจ้าพ่อเทพารักษ์,เจ้าแม่ทับทิม",107.0,นครสวรรค์,6001.0,เมืองนครสวรรค์,600101.0,ปากน้ำโพ,2024-12-12T03:25:55.869Z
30218,บึงบอระเพ็ด,เป็นบึงน้ำจืดขนาดใหญ่ที่สุดในประเทศไทย อยู่ในเขตอำเภอเมือง อำเภอท่าตะโก และอำเภอชุมแสง เหมาะแก่การดูนกในช่วงเดือนพฤศจิกายนถึงมีนาคม,สถานที่ท่องเที่ยว,3,15.71149,100.17978,60000,https://dmc.tatdataapi.io/assets/95571b09-ab70-4ed0-9ccf-f63e9b3b7c78.jpg,บึงบอระเพ็ด,107.0,นครสวรรค์,6001.0,เมืองนครสวรรค์,600104.0,แควใหญ่,2024-12-12T03:18:25.808Z
26015,อาคารแสดงพันธุ์สัตว์น้ำบึงบอระเพ็ดเฉลิมพระเกียรติ 80 พรรษา,,สถานที่ท่องเที่ยว,3,15.71204,100.17570,60000,https://dmc.tatdataapi.io/assets/1097a229-a29b-4a69-b06c-6f5867d41ee0.jpeg,,107.0,นครสวรรค์,6001.0,เมืองนครสวรรค์,600104.0,แควใหญ่,2024-12-03T04:59:38.657Z
16716,หอชมเมืองนครสวรรค์,,สถานที่ท่องเที่ยว,3,15.71806,100.12356,60000,https://dmc.tatdataapi.io/assets/6d4c2bd1-fac8-4b03-9c16-6d6ada39f875.jpeg,หอชมเมืองนครสวรรค์,107.0,นครสวรรค์,6001.0,เมืองนครสวรรค์,600101.0,ปากน้ำโพ,2024-12-03T04:47:46.995Z
12829,ภูชี้เดือน,,สถานที่ท่องเที่ยว,3,19.88034,100.49932,57310,https://dmc.tatdataapi.io/assets/d340d9fb-329f-4c88-bf36-fab49dea702f.jpeg,ภูชี้เดือน,102.0,เชียงราย,5713.0,เวียงแก่น,571302.0,ปอ,2024-12-03T03:28:30.187Z
12823,ภูชี้ดาว,,สถานที่ท่องเที่ยว,3,19.86789,100.49649,57310,https://dmc.tatdataapi.io/assets/54bf7be3-cd73-41fa-a3c7-c3b580171d46.jpeg,ภูชี้ดาว,102.0,เชียงราย,5713.0,เวียงแก่น,571302.0,ปอ,2024-12-03T03:25:38.353Z
28282,ไร่ชาฉุยฟง,,สถานที่ท่องเที่ยว,3,20.20001,99.81666,57110,https://dmc.tatdataapi.io/assets/4880580d-9774-46b0-b8a8-aebb1c8d069a.jpeg,ไร่ชาฉุยฟง,102.0,เชียงราย,5707.0,แม่จัน,570704.0,ป่าซาง,2024-11-28T08:14:02.093Z
27414,พระตำหนักดอยตุง,เคยเป็นที่ประทับแปรพระราชฐานเพื่อทรงงานของสมเด็จพระศรีนครินทราบรมราชชนนี มีสถาปัตยกรรมผสมผสานศิลปะล้านนากับชาเลต์ของประเทศสวิตเซอร์แลนด์ มีการแกะสลักไม้ตามกาแล เชิงชาย และขอบหน้าต่างเป็นลวดลายต่าง ๆ โดยฝีมือช่างชาวเหนือ รอบพระตำหนักมีสวนดอกไม้สวยงาม มีบริการเครื่องบรรยายภาษาไทยและภาษาอังกฤษเพื่อนำชมตามจุดต่าง ๆ,สถานที่ท่องเที่ยว,3,20.28726,99.80948,57240,https://dmc.tatdataapi.io/assets/73aff1ba-d689-4b30-961c-2a2f31a0bfb1.jpeg,พระตำหนักดอยตุง,102.0,เชียงราย,5715.0,แม่ฟ้าหลวง,571504.0,แม่ฟ้าหลวง,2024-11-28T07:52:38.165Z
13142,พระบรมธาตุศรีนครินทราสถิตมหาสันติคีรี,"ตั้งอยู่บนยอดดอยแม่สลอง ตำบลแม่สลองนอก ทางเหนือของหมู่บ้านสันติคีรี มีความสูง 1,500 เมตรจากระดับทะเลปานกลาง อยู่ห่างจากหมู่บ้านสันติคีรี 4 กิโลเมตร สร้างแล้วเสร็จเมื่อปี พ.ศ. 2539 เพื่อเฉลิมพระเกียรติสมเด็จพระศรีนครินทราบรมราชชนนี (สมเด็จย่า)",สถานที่ท่องเที่ยว,3,20.16937,99.62304,57110,https://dmc.tatdataapi.io/assets/d5b3b510-8c5c-44fd-a2d6-1b0b7d8ebe74.jpeg,พระบรมธาตุศรีนครินทราสถิตมหาสันติคีรี,102.0,เชียงราย,5715.0,แม่ฟ้าหลวง,571503.0,แม่สลองนอก,2024-11-28T07:46:43.266Z
27469,ดอยแม่สลอง,ดอยแม่สลอง เป็นที่ตั้งของหมู่บ้านสันติคิรี เดิมชื่อบ้านแม่สลองนอก เป็นชุมชนของอดีตทหารจีนกองพล 93 ที่อพยพจากสาธารณรัฐสหภาพเมียนมา เดือนธันวาคมถึงกุมภาพันธ์เป็นช่วงที่อากาศหนาว จะมีดอกนางพญาเสือโคร่ง ซึ่งเป็นซากุระพันธุ์ที่เล็กที่สุด สีชมพูอมขาว บานสะพรั่งตลอดแนวทางขึ้นดอยแม่สลอง,สถานที่ท่องเที่ยว,3,20.16548,99.61833,57110,https://dmc.tatdataapi.io/assets/ff882dae-d515-48ee-ab29-7905c17f8325.jpeg,ดอยแม่สลอง,102.0,เชียงราย,5715.0,แม่ฟ้าหลวง,571503.0,แม่สลองนอก,2024-11-28T07:42:33.853Z
33569,ไร่รื่นรมย์,,สถานที่ท่องเที่ยว,3,19.65702,100.15691,57160,https://dmc.tatdataapi.io/assets/e68174fd-c7aa-4ffb-bffb-84b2628d5c18.jpeg,ไร่รื่นรมย์,102.0,เชียงราย,5704.0,เทิง,570402.0,งิ้ว,2024-11-28T07:20:41.184Z
12816,อุทยานแห่งชาติภูชี้ฟ้า,,สถานที่ท่องเที่ยว,3,19.85032,100.44621,57310,https://dmc.tatdataapi.io/assets/e20747f6-5da4-4f2a-9332-466d2287870d.jpeg,ภูชี้ฟ้า,102.0,เชียงราย,5713.0,เวียงแก่น,571302.0,ปอ,2024-11-28T07:13:57.956Z
33612,บ้านผาหมี,,สถานที่ท่องเที่ยว,3,20.39936,99.85024,57130,https://dmc.tatdataapi.io/assets/74641c27-14ab-4891-ab22-dc4d016972dc.jpeg,บ้านผาหมี,102.0,เชียงราย,5709.0,แม่สาย,570906.0,เวียงพางคำ,2024-11-28T06:59:42.079Z
3812,วัดหิรัญญาวาส,ตั้งอยู่อำเภอแม่สาย เดิมชื่อวัดเหมืองแดงน้อย ภายในวัดมีพระพุทธรูปสานด้วยไม้ไผ่องค์ใหญ่ที่สุดในโลก ชื่อว่า “พระสิงห์สานชนะมาร”,สถานที่ท่องเที่ยว,3,20.42803,99.94397,57130,https://dmc.tatdataapi.io/assets/35552641-dcb1-4264-94f0-fdc6d97d0d74.jpeg,วัดหิรัญญาวาส,102.0,เชียงราย,5709.0,แม่สาย,570903.0,เกาะช้าง,2024-11-28T06:54:35.056Z
10602,สระมรกต,น้ำมีอุณหภูมิราว 30-50 องศาเซลเซียส ด้วยความสงบกลางผืนป่าร่มรื่น แว่วยินเสียงนกร้องเติมชีวิตชีวา และเป็นแหล่งดูนกที่หาดูได้ยากอีกด้วย,สถานที่ท่องเที่ยว,3,7.92424,99.26079,81120,https://dmc.tatdataapi.io/assets/07f4349c-85f7-47a2-b4fd-2165ef98a3ba.jpeg,,344.0,กระบี่,8104.0,คลองท่อม,810402.0,คลองท่อมเหนือ,2024-11-25T09:20:14.096Z
31703,ชุมชนบ้านปางห้า,,สถานที่ท่องเที่ยว,3,20.41253,99.99496,57130,https://dmc.tatdataapi.io/assets/dd5a92f8-a9b5-4e6b-abb5-2551d39eacae.jpeg,ชุมชนบ้านปางห้า,102.0,เชียงราย,5709.0,แม่สาย,570903.0,เกาะช้าง,2024-11-22T03:22:40.543Z
31585,บ้านผาฮี้,,สถานที่ท่องเที่ยว,3,20.36162,99.83217,57130,https://dmc.tatdataapi.io/assets/745fe74a-719f-41ad-a850-23cf31c33bda.jpeg,บ้านผาฮี้,102.0,เชียงราย,5709.0,แม่สาย,570909.0,โป่งงาม,2024-11-19T07:13:26.396Z
13087,พระธาตุดอยเวา,,สถานที่ท่องเที่ยว,3,20.44190,99.87766,57130,https://dmc.tatdataapi.io/assets/6e6646b9-14cc-43f1-8166-ca4a4d47c948.jpeg,พระธาตุดอยเวา,102.0,เชียงราย,5709.0,แม่สาย,570906.0,เวียงพางคำ,2024-11-19T07:08:10.065Z
2628,วัดป่าสัก,ตั้งอยู่ตำบลเวียง เป็นโบราณสถานเก่าแก่ที่สำคัญของเมืองเชียงแสน นับเป็นโบราณสถานที่มีปูนปั้นสวยที่สุดในยุคต้นล้านนา หลักฐานการสร้างปรากฏในพงศาวดารเมืองเงินยางเชียงแสน โดยกล่าวว่า วัดแห่งนี้สร้างขึ้นในสมัยพระพญาแสนภู เจ้าผู้ครองนครเชียงใหม่องค์ที่ 3 แห่งราชวงศ์มังราย เพื่อเป็นที่ประดิษฐานพระบรมสารีริกธาตุกระดูกตาตุ่มข้างขวา โคปผกะธาตุ และทรงสั่งให้ปลูกต้นสักทั่วบริเวณวัดจำนวนถึง 300 ต้น ซึ่งกลายมาเป็นที่มาของชื่อวัดแห่งนี้,สถานที่ท่องเที่ยว,3,20.27431,100.07645,57150,https://dmc.tatdataapi.io/assets/a5752477-b50d-43bb-9b77-a454af987bb9.jpeg,วัดป่าสัก,102.0,เชียงราย,5708.0,เชียงแสน,570801.0,เวียง,2024-11-19T06:41:26.020Z
31261,ชุมชนบ้านท่าขันทอง,,สถานที่ท่องเที่ยว,3,20.19654,100.23728,57150,https://dmc.tatdataapi.io/assets/5bb47fb7-35ed-4606-9d97-520d04db9b60.jpeg,ชุมชนบ้านท่าขันทอง,102.0,เชียงราย,5708.0,เชียงแสน,570803.0,บ้านแซว,2024-11-19T06:31:51.562Z
2174,วัดพระธาตุจอมกิตติ,,สถานที่ท่องเที่ยว,3,20.28644,100.07518,57150,https://dmc.tatdataapi.io/assets/feaf6988-647e-43fe-b30c-4e77048492cd.jpeg,วัดพระธาตุจอมกิตติ,102.0,เชียงราย,5708.0,เชียงแสน,570801.0,เวียง,2024-11-19T06:24:24.053Z
2156,วัดพระธาตุผาเงา,"ตั้งอยู่บ้านสบคำ ตำบลเวียง สันนิษฐานว่าเป็นวัดที่สำคัญในสมัยอาณาจักรโยนก เดิมชื่อว่า วัดสบคำ ตั้งอยู่ริมฝั่งแม่น้ำโขง ต่อมาถูกกระแสน้ำพัดพังทลายลงเกือบหมดวัดจึงได้สร้างวัดขึ้นมาใหม่ ปี พ.ศ. 2519 มีการปรับพื้นที่บริเวณวัดใหม่จึงมีการขุดพบพระพุทธรูป อายุระหว่าง 700-1,300 ปี จึงได้เรียกพระพุทธรูปว่า “หลวงพ่อผาเงา” คำว่า “ผาเงา” หมายถึง เงาของก้อนผาหรือก้อนหิน ซึ่งมีขนาดใหญ่ทรงคล้ายเจดีย์ เวลาพระอาทิตย์ส่องผ่านก้อนหินทำให้เกิดเงาขนาดใหญ่ ชาวบ้านจึงเรียกว่า “พระธาตุผาเงา”",สถานที่ท่องเที่ยว,3,20.24424,100.10813,57150,https://dmc.tatdataapi.io/assets/ef426cef-6932-4acf-8a81-dca6c6308283.jpeg,วัดพระธาตุผาเงา,102.0,เชียงราย,5708.0,เชียงแสน,570801.0,เวียง,2024-11-19T04:21:15.431Z
13153,พระธาตุเจดีย์หลวง,ตั้งอยู่ตำบลเวียง ติดกับพิพิธภัณฑสถานแห่งชาติ เชียงแสน เป็นวัดเก่าแก่และมีขนาดใหญ่ที่สุดของเมืองเชียงแสน สร้างขึ้นเมื่อปี พ.ศ.1887 ช่วงพุทธศตวรรษที่ 19 โดยพระเจ้าแสนภู พระราชนัดดาของพ่อขุนเม็งรายมหาราช ปฐมกษัตริย์ของอาณาจักรล้านนา เพื่อประดิษฐานพระบรมสารีริกธาตุ ต่อมาพระเมืองแก้วได้สั่งให้ขุดฐานพระเจดีย์เดิมออกแล้วสร้างพระเจดีย์องค์ใหม่ขึ้นเมื่อปี พ.ศ. 2058,สถานที่ท่องเที่ยว,3,20.27362,100.08086,57150,https://dmc.tatdataapi.io/assets/493af485-cda0-4ae5-87ea-46a99e7511ce.jpeg,พระธาตุเจดีย์หลวง,102.0,เชียงราย,5708.0,เชียงแสน,570801.0,เวียง,2024-11-19T03:55:35.655Z
33337,อาข่า ฟาร์มวิลล์,,สถานที่ท่องเที่ยว,3,19.74227,99.53849,57180,https://dmc.tatdataapi.io/assets/8d66525a-9706-492d-bbae-c19b695b765a.jpeg,,102.0,เชียงราย,5710.0,แม่สรวย,571006.0,วาวี,2024-11-19T03:30:06.249Z
27514,ดอยช้าง,,สถานที่ท่องเที่ยว,3,19.82393,99.57305,57180,https://dmc.tatdataapi.io/assets/66e9e161-7c2e-4e3a-a4df-da74273c3d9a.jpeg,ดอยช้าง,102.0,เชียงราย,5710.0,แม่สรวย,571006.0,วาวี,2024-11-19T03:21:39.098Z
9399,สิงห์ปาร์ค เชียงราย,"เป็นแหล่งท่องเที่ยวเชิงเกษตร มีพื้นที่เกษตรกรรม ไร่ชา และธรรมชาติที่สวยงามในพื้นที่กว่า 8,000 ไร่ ",สถานที่ท่องเที่ยว,3,19.85317,99.74303,57000,https://dmc.tatdataapi.io/assets/b874cb6c-b2f2-4d55-bc93-11ee83fa7fd9.jpg,สิงห์ปาร์ค,102.0,เชียงราย,5701.0,เมืองเชียงราย,570111.0,แม่กรณ์,2024-11-19T03:14:31.217Z
1936,วัดร่องเสือเต้น,ตั้งอยู่ชุมชนร่องเสือเต้น ตำบลริมกก เป็นวัดที่ได้รับการบูรณะด้วยผลงานของนายพุทธา กาบแก้ว หรือ “สล่านก” ศิลปินท้องถิ่นชาวเชียงราย ลูกศิษย์อาจารย์เฉลิมชัย โฆษิตพิพัฒน์ วัดมีความสวยงามแปลกตาด้วยศิลปะประยุกต์ที่เป็นเอกลักษณ์เฉพาะตัว โดยใช้เฉดสีเป็นสีน้ำเงินฟ้า และสถาปัตยกรรมความงดงามจากช่างปูนปั้น,สถานที่ท่องเที่ยว,3,19.92339,99.84179,57100,https://dmc.tatdataapi.io/assets/4eea1926-508a-4402-b6e3-d3af0c556e6c.jpeg,วัดร่องเสือเต้น,102.0,เชียงราย,5701.0,เมืองเชียงราย,570114.0,ริมกก,2024-11-19T02:59:46.731Z
3760,วัดห้วยปลากั้ง,ตั้งอยู่ตำบลริมกก เดิมเป็นสำนักสงฆ์ สร้างขึ้นเมื่อปี พ.ศ. 2544 โดยคณะศรัทธาวัดห้วยปลากั้ง ต่อมาสำนักงานพุทธศาสนาแห่งชาติประกาศแต่งตั้งให้เป็นวัด ชื่อว่า “วัดห้วยปลากั้ง” เมื่อวันที่ 24 กรกฎาคม พ.ศ. 2552 โดยมีพระอธิการพบโชค ติสฺสวํโส เป็นเจ้าอาวาสรูปแรก,สถานที่ท่องเที่ยว,3,19.94932,99.80650,57100,https://dmc.tatdataapi.io/assets/7a5d991f-aff5-4572-8b17-45ec3892725b.jpeg,วัดห้วยปลากั้ง,102.0,เชียงราย,5701.0,เมืองเชียงราย,570106.0,แม่ยาว,2024-11-19T02:52:15.510Z
32205,พิพิธภัณฑ์บ้านดำ,,สถานที่ท่องเที่ยว,3,19.99208,99.86058,57100,https://dmc.tatdataapi.io/assets/80b96015-64bb-4e37-963f-e36ece9265e1.jpeg,พิพิธภัณฑ์บ้านดำ,102.0,เชียงราย,5701.0,เมืองเชียงราย,570104.0,นางแล,2024-11-19T02:44:41.296Z
28613,หอนาฬิกาเฉลิมพระเกียรติฯ,,สถานที่ท่องเที่ยว,3,19.90712,99.83095,57000,https://dmc.tatdataapi.io/assets/c0c7d49a-1033-47c7-b0cf-8a78de5694cc.jpeg,,102.0,เชียงราย,5701.0,เมืองเชียงราย,570101.0,เวียง,2024-11-18T08:50:09.053Z
21918,น้ำตกขุนกรณ์,,สถานที่ท่องเที่ยว,3,19.88255,99.61637,57000,https://dmc.tatdataapi.io/assets/eb63a933-1d35-45aa-88d3-dc34f58a6a33.jpeg,น้ำตกขุนกรณ์,102.0,เชียงราย,5701.0,เมืองเชียงราย,570112.0,ห้วยชมภู,2024-11-18T08:21:28.036Z
1897,วัดร่องขุ่น,ตั้งอยู่ตำบลป่าอ้อดอนชัย เดิมเป็นเพียงวัดเก่าขนาดเล็กและสภาพค่อนข้างทรุดโทรม ต่อมาเมื่อปี พ.ศ. 2540 อาจารย์เฉลิมชัย โฆษิตพิพัฒน์ ศิลปินแห่งชาติสาขาทัศนศิลป์ (จิตรกรรม) ได้มีแนวคิดในการบูรณะและออกแบบใหม่ โดยใช้ระยะเวลาก่อสร้างนานถึง 13 ปี โดยได้รับแรงบันดาลใจในการสร้างมาจากชาติ ศาสนา และพระมหากษัตริย์,สถานที่ท่องเที่ยว,3,19.82425,99.76322,57000,https://dmc.tatdataapi.io/assets/0ae5aade-0b7e-4003-9055-38a11c960bc6.jpeg,วัดร่องขุ่น,102.0,เชียงราย,5701.0,เมืองเชียงราย,570116.0,ป่าอ้อดอนชัย,2024-11-18T08:03:00.816Z
2331,วัดพระแก้ว,วัดพระแก้ว ตั้งอยู่ถนนไตรรัตน์ ตำบลเวียง เป็นวัดที่ค้นพบพระแก้วมรกต หรือพระพุทธมหามณีรัตนปฏิมากร ซึ่งปัจจุบันประดิษฐานอยู่ที่วัดพระศรีรัตนศาสดาราม กรุงเทพมหานคร,สถานที่ท่องเที่ยว,3,19.91178,99.82769,57000,https://dmc.tatdataapi.io/assets/dda2e336-17b1-4ea2-84e5-b3832ca56a5a.jpg,วัดพระแก้ว,102.0,เชียงราย,5701.0,เมืองเชียงราย,570101.0,เวียง,2024-11-18T07:39:18.841Z
2269,วัดพระสิงห์,,สถานที่ท่องเที่ยว,3,19.91139,99.83050,57000,https://dmc.tatdataapi.io/assets/ff029dc6-0db7-42ae-8b86-264c404cc423.jpeg,วัดพระสิงห์,102.0,เชียงราย,5701.0,เมืองเชียงราย,570101.0,เวียง,2024-11-18T07:26:08.750Z
21680,อนุสาวรีย์พ่อขุนเม็งรายมหาราช,,สถานที่ท่องเที่ยว,3,19.91042,99.84013,57000,https://dmc.tatdataapi.io/assets/4cb360d3-51e3-4037-9121-e0b049469c95.jpeg,พ่อขุนเม็งรายมหาราช,102.0,เชียงราย,5701.0,เมืองเชียงราย,570101.0,เวียง,2024-11-18T07:07:13.427Z
4675,ตลาดถนนวันวานเมืองลับแล,,สถานที่ท่องเที่ยว,3,17.65187,100.04525,53130,,"ตลาดถนนวันวานเมืองลับแล,อุตรดิตถ์",117.0,อุตรดิตถ์,5308.0,ลับแล,530801.0,ศรีพนมมาศ,2024-11-18T06:56:55.811Z
33469,ภูสะนาว,,สถานที่ท่องเที่ยว,3,18.08154,101.11428,53180,,ภูสะนาว,117.0,อุตรดิตถ์,5306.0,บ้านโคก,530601.0,ม่วงเจ็ดต้น,2024-11-18T06:48:55.637Z
33602,ชุมชนลาวเวียงบ้านหาดสองแคว,ตั้งอยู่ตำบลหาดสองแคว เป็นชุมชนเล็ก ๆ ประกอบด้วยหลายหมู่บ้าน ส่วนใหญ่มีเชื้อสายลาวเวียง ซึ่งอพยพมาจากเมืองเวียงจันทน์ สาธารณรัฐประชาธิปไตยประชาชนลาว ตั้งแต่สมัยรัชกาลที่ 3 ,สถานที่ท่องเที่ยว,3,17.42147,100.12894,53140,,"ชุมชนลาวเวียงบ้านหาดสองแคว,อุตรดิตถ์",117.0,อุตรดิตถ์,5302.0,ตรอน,530203.0,หาดสองแคว,2024-11-18T06:35:58.676Z
33567,พิพิธภัณฑ์ผ้าทอตีนจก ไท-ยวน,ตั้งอยู่ตำบลชัยจุมพล เป็นศูนย์การเรียนรู้ที่ถ่ายทอดภูมิปัญญาการทอผ้าตีนจกไท-ยวน ก่อตั้งโดย คุณจงจรูญ มะโนคำ ,สถานที่ท่องเที่ยว,3,17.64665,100.03222,53130,https://dmc.tatdataapi.io/assets/1392943e-bf47-497a-adec-a2acc9f1eb7e.jpeg,พิพิธภัณฑ์ผ้าทอตีนจก,117.0,อุตรดิตถ์,5308.0,ลับแล,530805.0,ชัยจุมพล,2024-11-18T04:39:17.659Z
33614,บ้านพระยาสุรสีห์วิสิษฐศักดิ์,ตั้งอยู่ตำบลศรีพนมมาศ เป็นแหล่งท่องเที่ยวเชิงประวัติศาสตร์ เรือนทำมาจากไม้สักทองทรงปั้นหยา ตัวอาคารเป็นบ้านไม้ทรงตึกยกพื้นสูง สถาปัตยกรรมโคโลเนียลประยุกต์กับพื้นเมืองอายุกว่าร้อยปีหลังเดียวในจังหวัดอุตรดิตถ์,สถานที่ท่องเที่ยว,3,17.65315,100.03731,53130,https://dmc.tatdataapi.io/assets/102c3500-ab54-4c3f-aaad-37ab08d7c506.jpeg,บ้านพระยาสุรสีห์วิสิษฐศักดิ์,117.0,อุตรดิตถ์,5308.0,ลับแล,530801.0,ศรีพนมมาศ,2024-11-18T04:31:22.369Z
2222,วัดพระแท่นศิลาอาสน์,ตั้งอยู่บ้านพระแท่น ตำบลทุ่งยั้ง เลยวัดพระยืนไปเล็กน้อย วัดแห่งนี้มีพระแท่นศิลาอาสน์เป็นศิลาแลงรูปสี่เหลี่ยมผืนผ้า กว้าง 8 ฟุต ยาว 10 ฟุต สูง 3 ฟุต ฐานของพระแท่นโดยรอบประดับด้วยลายกลีบบัว,สถานที่ท่องเที่ยว,3,17.59820,100.04347,53210,https://dmc.tatdataapi.io/assets/627da273-b7c0-4555-bd4d-c87dfc181235.jpeg,วัดพระแท่นศิลาอาสน์,117.0,อุตรดิตถ์,5308.0,ลับแล,530807.0,ทุ่งยั้ง,2024-11-18T04:26:58.073Z
2301,วัดพระบรมธาตุทุ่งยั้ง,,สถานที่ท่องเที่ยว,3,17.60029,100.05557,53210,https://dmc.tatdataapi.io/assets/8eb0bbd1-fe6d-496a-a539-079945097c85.jpg,วัดพระบรมธาตุทุ่งยั้ง,117.0,อุตรดิตถ์,5308.0,ลับแล,530807.0,ทุ่งยั้ง,2024-11-18T03:59:13.930Z
17081,พิพิธภัณฑ์เมืองลับแล,,สถานที่ท่องเที่ยว,3,17.65168,100.04501,53130,https://dmc.tatdataapi.io/assets/93bf4207-fe2f-4ae1-8238-fc288b47807e.jpeg,พิพิธภัณฑ์เมืองลับแล,117.0,อุตรดิตถ์,5308.0,ลับแล,530801.0,ศรีพนมมาศ,2024-11-18T03:43:07.123Z
33571,พิพิธภัณฑ์บ้านเกิดพระยาพิชัยดาบหัก,ตั้งอยู่บ้านห้วยคา ตำบลในเมือง เป็นสถานที่เกิดของพระยาพิชัยดาบหัก,สถานที่ท่องเที่ยว,3,17.63004,100.09737,53000,https://dmc.tatdataapi.io/assets/20933908-5b3b-40a1-b18e-d198cf5f3478.jpeg,พิพิธภัณฑ์บ้านเกิดพระยาพิชัยดาบหัก,117.0,อุตรดิตถ์,5301.0,เมืองอุตรดิตถ์,530101.0,ท่าอิฐ,2024-11-18T03:23:05.507Z
12651,อุทยานแห่งชาติภูสอยดาว,"อุทยานแห่งชาติภูสอยดาว มีพื้นที่ครอบคลุมอยู่ในป่าสงวนแห่งชาติป่าน้ำปาด ในตำบลม่วงเจ็ดต้น ตำบลนาขุม ตำบลบ้านโคก อำเภอบ้านโคก ตำบลห้วยมุ่น อำเภอน้ำปาด จังหวัดอุตรดิตถ์ ตำบลบ่อภาค อำเภอชาติตระการ จังหวัดพิษณุโลก มีเนื้อที่ 125,110 ไร่ หรือ 200.18 ตารางกิโลเมตร เป็นพื้นที่ที่มีสภาพป่าค่อนข้างสมบูรณ์ปกคลุมไปด้วยป่าธรรมชาติที่สวยงาม เป็นแหล่งต้นน้ำลำธาร ยอดสูงสุดของภูสอยดาวสูงจากระดับทะเลปานกลาง 2,102 เมตร ซึ่งสูงเป็นอันดับ 4 ของประเทศไทย",สถานที่ท่องเที่ยว,3,17.70500,100.95182,53110,https://dmc.tatdataapi.io/assets/69036992-2950-4cc6-9934-ce2090032373.jpg,อุทยานแห่งชาติภูสอยดาว,117.0,อุตรดิตถ์,5304.0,น้ำปาด,530406.0,ห้วยมุ่น,2024-11-18T03:07:24.935Z
33606,ชุมชนบ้านหาดไก่ต้อย,,สถานที่ท่องเที่ยว,3,17.75609,100.34371,53150,https://dmc.tatdataapi.io/assets/d016dba3-5f6d-427a-a50f-07418bc3dc91.jpg,ชุมชนบ้านหาดไก่ต้อย,117.0,อุตรดิตถ์,5303.0,ท่าปลา,530302.0,หาดล้า,2024-11-15T06:45:04.886Z
33387,สกายวอล์กห้วยน้ำรี,,สถานที่ท่องเที่ยว,3,17.88109,100.35754,53150,https://dmc.tatdataapi.io/assets/c3763345-3c76-41c6-8558-4ac3b1d074cc.jpeg,สกายวอล์คห้วยน้ำรี,117.0,อุตรดิตถ์,5303.0,ท่าปลา,530304.0,จริม,2024-11-15T04:26:17.826Z
9250,เขื่อนสิริกิติ์,เขื่อนสิริกิติ์ เป็นเขื่อนดินที่ใหญ่ที่สุดในประเทศไทย ก่อสร้างขึ้นตามโครงการพัฒนาลุ่มน้ำน่าน เดิมชื่อ “เขื่อนผาซ่อม” ต่อมาได้รับพระบรมราชานุญาตให้อัญเชิญพระนามาภิไธย สมเด็จพระนางเจ้าสิริกิติ์ พระบรมราชินีนาถ จึงได้ใช้ชื่อว่า “เขื่อนสิริกิติ์”,สถานที่ท่องเที่ยว,3,17.76424,100.56320,53190,https://dmc.tatdataapi.io/assets/aa9105b2-713a-43df-bb97-97169752f688.jpg,เขื่อนสิริกิติ์,117.0,อุตรดิตถ์,5303.0,ท่าปลา,530303.0,ผาเลือด,2024-11-15T04:22:58.888Z
19795,อุทยานแห่งชาติลำน้ำน่าน,เป็นทิวเขาสลับซับซ้อนประกอบด้วยป่านานาชนิดที่ยังคงความสมบูรณ์ และเป็นแหล่งต้นน้ำลำธารของอ่างเก็บน้ำเหนือเขื่อนสิริกิติ์ ประกอบด้วยป่าเบญจพรรณ ป่าเต็งรัง ป่าดิบแล้ง และป่าดิบเขา และเป็นที่อยู่อาศัยของสัตว์ป่าจำนวนมาก เช่น เก้ง กวาง หมูป่า หมี และสัตว์ปีกจำนวนไม่น้อยกว่า 200 ชนิด ได้รับการประกาศเป็นอุทยานแห่งชาติ,สถานที่ท่องเที่ยว,3,17.76757,100.48916,53190,https://dmc.tatdataapi.io/assets/120c6a05-e162-4d62-8786-6a228c8fa7d2.jpg,อุทยานแห่งชาติลำน้ำน่าน,117.0,อุตรดิตถ์,5303.0,ท่าปลา,530303.0,ผาเลือด,2024-11-15T03:53:53.637Z
33383,วัดพลอยสังวรนิรันดร์,ตั้งอยู่บ้านนาลับแลง ตำบลป่าค่าย ท่ามกลางธรรมชาติอันสวยงามของอำเภอทองแสนขัน เป็นวัดสาขาหนึ่งของวัดนาหลวง (อภิญญาเทสิตธรรม) และเป็นแหล่งท่องเที่ยวเชิงธรรมะที่มีศิลปะสวยงามแห่งหนึ่งในจังหวัดอุตรดิตถ์,สถานที่ท่องเที่ยว,3,17.49267,100.25464,53230,https://dmc.tatdataapi.io/assets/f5bc0d6d-2d37-4964-ae72-74f8729e97d7.jpg,,117.0,อุตรดิตถ์,5309.0,ทองแสนขัน,530903.0,ป่าคาย,2024-11-15T03:15:03.397Z
30466,พิพิธภัณฑ์บ่อเหล็กน้ำพี้,ตั้งอยู่บ้านน้ำพี้ ตำบลน้ำพี้ เป็นสถานที่รวบรวมหลักฐานต่าง ๆ เกี่ยวกับประวัติเหล็กน้ำพี้ โดยจัดแสดงและจำลองให้เห็นถึงกระบวนการ ขั้นตอนการตีเหล็กน้ำพี้ ตั้งแต่การขุดแร่เหล็กน้ำพี้ จนตีเป็นดาบที่มีความแกร่งและความคมเป็นเลิศ ดาบน้ำพี้จึงเป็นอาวุธคู่กายของขุนศึกและนักรบไทยในสมัยโบราณ,สถานที่ท่องเที่ยว,3,17.54116,100.29984,53230,https://dmc.tatdataapi.io/assets/97f7fc33-0e00-4b31-8116-7c2fab903e55.jpg,พิพิธภัณฑ์บ่อเหล็กน้ำพี้,117.0,อุตรดิตถ์,5309.0,ทองแสนขัน,530904.0,น้ำพี้,2024-11-15T03:08:04.161Z
33884,วิหารเจ้าแม่กวนอิม (น้ำริด),ตั้งอยู่บ้านชายเขา ตำบลน้ำริด เดิมเป็นสถานปฏิบัติธรรมพระโพธิสัตว์กวนอิม ซึ่งต่อมาได้จดทะเบียนเป็นมูลนิธิพุทธภาวนาธรรมสถาน (วิหารเจ้าแม่กวนอิมบ้านชายเขา) เพื่อใช้เป็นสถานที่ปฏิบัติธรรม สงเคราะห์ผู้ยากไร้และผู้ด้อยโอกาส รวมถึงส่งเสริมและอนุรักษ์ศิลปวัฒนธรรมของคนไทยเชื้อสายจีน ,สถานที่ท่องเที่ยว,3,,,,,วิหารเจ้าแม่กวนอิม,,,,,,,2024-11-15T02:19:08.326Z
33572,พิพิธภัณฑ์บ้านกนกมณี,ตั้งอยู่ถนนบรมอาสน์ ตำบลท่าอิฐ เป็นอาคารที่สร้างขึ้นเมื่อ พ.ศ. 2476 โดยอำมาตย์โท พระยาอัธยาศัยวิสุทธิ์ (โชติ กนกมณี) อดีตผู้ว่าราชการจังหวัดอุตรดิตถ์ (พ.ศ. 2474 - 2476) ต้นตระกูลกนกมณี ซึ่งหลังเกษียณอายุราชการ ท่านและครอบครัวได้ตัดสินใจสร้างหลักปักฐานพำนักอยู่ที่อุตรดิตถ์,สถานที่ท่องเที่ยว,3,17.61436,100.09068,53000,https://dmc.tatdataapi.io/assets/85e6f133-a4a2-468f-b2b6-44ea52d725cc.jpeg,พิพิธภัณฑ์บ้านกนกมณี,117.0,อุตรดิตถ์,5301.0,เมืองอุตรดิตถ์,530101.0,ท่าอิฐ,2024-11-14T03:41:53.100Z
1304,วัดท่าถนน,วัดท่าถนน ตั้งอยู่บริเวณริมแม่น้ำน่าน ถนนเกษมราษฎร์ ตำบลท่าอิฐ ตรงข้ามสถานีรถไฟอุตรดิตถ์ เดิมชื่อ “วัดวังเตาหม้อ” เป็นที่ประดิษฐาน “หลวงพ่อเพชร” ซึ่งเป็นพระพุทธรูปสัมฤทธิ์สมัยเชียงแสน นั่งขัดสมาธิเพชร,สถานที่ท่องเที่ยว,3,17.61952,100.09855,53000,https://dmc.tatdataapi.io/assets/e58e6301-215b-48ff-aa87-9701b9bab9b3.jpeg,วัดท่าถนน,117.0,อุตรดิตถ์,5301.0,เมืองอุตรดิตถ์,530101.0,ท่าอิฐ,2024-11-12T02:58:54.391Z
1427,วัดสุทัศนเทพวรารามราชวรมหาวิหาร,วัดสุทัศนเทพวราราม หรือที่นิยมเรียกสั้น ๆ ว่า วัดสุทัศน์ เป็นพระอารามหลวงชั้นเอก ชนิดราชวรมหาวิหาร ที่มีอยู่เพียงไม่กี่แห่งของประเทศไทย และถือเป็นวัดประจำรัชกาลของพระบาทสมเด็จพระปรเมนทรมหาอานันทมหิดล พระอัฐมรามาธิบดินทร เป็นวัดที่ตั้งอยู่ในเขตพระนครชั้นใน และอยู่มีสิ่งก่อสร้างที่โดดเด่นคือ เสาชิงช้า อยู่บริเวณหน้าวัด,สถานที่ท่องเที่ยว,3,13.75108,100.50107,10200,https://dmc.tatdataapi.io/assets/b1451d50-5a45-4660-a80a-a73cab6b2460.jpeg,,219.0,กรุงเทพมหานคร,1001.0,พระนคร,100103.0,วัดราชบพิธ,2024-11-11T16:00:16.172Z
360,พิพิธภัณฑ์วังวรดิศ และหอสมุดดำรงราชานุภาพ,ตั้งอยู่ ณ บริเวณวังวรดิศ ถนนหลานหลวง เป็นห้องสมุดอนุสรณ์แด่สมเด็จพระเจ้าบรมวงศ์เธอ กรมพระยาดำรงราชานุภาพ ซึ่งได้รับการยกย่องว่าเป็นพระบิดาแห่งประวัติศาสตร์ไทย,สถานที่ท่องเที่ยว,3,13.75594,100.51236,10100,https://dmc.tatdataapi.io/assets/1d3c43f5-a84c-4ffa-baaa-0f7080fdf71d.jpeg,,219.0,กรุงเทพมหานคร,1008.0,ป้อมปราบศัตรูพ่าย,100803.0,คลองมหานาค,2024-11-11T15:55:24.275Z
1062,วัดไตรมิตรวิทยาราม,พระพุทธทศพลญาณ พระประธานในพระอุโบสถ เป็นพระพุทธรูปปางมารวิชัย ปูนปั้น ลงรักปิดทอง ประชาชนทั่วไปเรียกว่า “หลวงพ่อโต” บ้าง “หลวงพ่อวัดสามจีน” มีประชาชนมาบนบานกันเสมอ ๆ ด้วยพวงมาลัยดอกมะลิ พระบาทสมเด็จพระจุลจอมเกล้าเจ้าอยู่หัวได้เคยทรงเสด็จพระราชดำเนินมานมัสการ และได้ตรัสยกย่องว่า เป็นพระพุทธรูปที่มีพระพุทธลักษณะงดงามยิ่งนัก “หลวงพ่อโม” อดีตเจ้าอาวาสวัดไตรมิตรวิทยาราม เคยได้ทำพระเครื่องแจกครั้งหนึ่ง ได้ทำเป็นรูปพระพุทธทศพลญาณสร้างด้วยเนื้อชิน เรียกชื่อว่า หลวงพ่อโตวัดสามจีน ปรากฏว่าเป็นที่นิยมนับถือของคนทั่งไปว่าศักดิ์สิทธินัก ปัจจุบันนี้หายากแล้ว,สถานที่ท่องเที่ยว,3,13.73803,100.51400,10100,https://dmc.tatdataapi.io/assets/6e825885-0611-4c4d-a7c5-1d074fd10bc9.jpeg,วัดไตรมิตรวิทยาราม,219.0,กรุงเทพมหานคร,1013.0,สัมพันธวงศ์,101303.0,ตลาดน้อย,2024-11-11T15:48:30.739Z
25995,น้ำตกเหวน้อย,น้ำตกเหวน้อย อยู่ที่บ้านมวกเหล็กใน เป็นต้นน้ำของน้ำตกมวกเหล็ก และน้ำตกเจ็ดสาวน้อย ,สถานที่ท่องเที่ยว,3,14.72488,101.19065,18180,https://dmc.tatdataapi.io/assets/a1a8e78b-c6d8-4c1d-b532-0f937441b3bf.jpg,น้ำตกเหวน้อย,237.0,สระบุรี,1911.0,มวกเหล็ก,191101.0,มวกเหล็ก,2024-11-11T08:52:14.318Z
4071,วัดฉลอง (วัดไชยธาราราม),เป็นวัดที่หลอมรวมความศรัทธาของชาวพุทธในจังหวัดภูเก็ตและพื้นที่ใกล้เคียง เรื่องราวบารมีอันยิ่งใหญ่ของหลวงพ่อแช่ม คือ ประวัติศาสตร์หน้าหนึ่งที่ชาวภูเก็ตไม่เคยลืมเลือน และทุกวันนี้ทั้งนักท่องเที่ยวและชาวภูเก็ตเอง ยังคงเดินทางไปสักการะรูปหล่อของท่าน รวมทั้งหลวงพ่อช่วง พระเกจิชื่อดังอีกรูปกันอยู่เสมอ ณ วัดฉลอง หรือเรียกอีกชื่อหนึ่งว่าวัดไชยธารามแห่งนี้ ,สถานที่ท่องเที่ยว,3,7.84654,98.33657,83130,https://dmc.tatdataapi.io/assets/d7fd9fa1-1588-4983-b178-5f7d86c26086.jpeg,"ภูเก็ต,วัดฉลอง,วัดไชยธาราราม,หลวงพ่อแช่ม",350.0,ภูเก็ต,8301.0,เมืองภูเก็ต,830106.0,ฉลอง,2024-11-11T06:14:20.724Z
33391,ศูนย์ศึกษาธรรมชาติเจ็ดคด-โป่งก้อนเส้า หรือศูนย์ฝึกอบรมที่ 6 (เจ็ดคด-โป่งก้อนเส้า),"ศูนย์ศึกษาธรรมชาติเจ็ดคด-โป่งก้อนเส้า หรือศูนย์ฝึกอบรมที่ 6 (เจ็ดคด-โป่งก้อนเส้า) 
ตั้งอยู่ตำบลท่ามะปราง มีพื้นที่ 22 ตารางกิโลเมตร เป็นแหล่งท่องเที่ยวเชิงนิเวศที่มีความสมบูรณ์ของธรรมชาติ ",สถานที่ท่องเที่ยว,3,14.49364,101.16164,18110,https://dmc.tatdataapi.io/assets/eee60377-d6ec-47e6-bbe7-e0475fd7e28f.jpeg,"เจ็ดคด,โป่งก้อนเส้า,อ่างเก็บน้ำซับป่าว่าน",237.0,สระบุรี,1902.0,แก่งคอย,190215.0,ท่ามะปราง,2024-11-11T03:25:11.977Z
33442,ไร่มัลเบอร์รี ฟาร์มสายทอง,,สถานที่ท่องเที่ยว,3,14.76750,101.21761,18180,,"ไร่มัลเบอร์รี,ฟาร์มสายทอง",237.0,สระบุรี,1911.0,มวกเหล็ก,191104.0,หนองย่างเสือ,2024-11-08T08:21:16.769Z
23638,อุทยานแห่งชาติน้ำตกสามหลั่น,พื้นที่ครอบคลุม 4 อำเภอ ได้แก่ อำเภอเมืองสระบุรี อำเภอแก่งคอย อำเภอหนองแค และอำเภอวิหารแดง มีเนื้อที่ 44.57 ตารางกิโลเมตร ลักษณะภูมิประเทศโดยทั่วไป ประกอบด้วยภูเขาน้อยใหญ่ มีที่ราบในหุบเขา ยอดเขาที่สูงที่สุดคือ เขาครก มีความสูงประมาณ 329 เมตรจากระดับทะเลปานกลาง บนยอดเขาเป็นจุดชมทิวทัศน์ สามารถมองเห็นภูมิทัศน์รอบตัวเมืองสระบุรีและอำเภอใกล้เคียง,สถานที่ท่องเที่ยว,3,14.43719,100.96301,18000,https://dmc.tatdataapi.io/assets/cef308a1-e8a5-42e7-bff1-d30e76a06225.jpeg,"น้ำตกสามหลั่น,อ่างเก็บน้ำเขารวก",237.0,สระบุรี,1901.0,เมืองสระบุรี,190111.0,หนองปลาไหล,2024-11-08T07:41:00.298Z
25801,ตลาดหัวปลี,ตั้งอยู่ด้านในศูนย์โอทอปพุแค ริมทางหลวงหมายเลข 21 ฝั่งขาเข้าตัวเมืองสระบุรี ใกล้กับสามแยกพุแค ตำบลพุแค เป็นตลาดชุมชน ,สถานที่ท่องเที่ยว,3,14.66659,100.89417,18240,,ตลาดหัวปลี,237.0,สระบุรี,1913.0,เฉลิมพระเกียรติ,191304.0,พุแค,2024-11-08T07:17:35.274Z
33384,สวนดอกเบญจมาศบิ๊กเต้,,สถานที่ท่องเที่ยว,3,14.80771,101.33015,18180,https://dmc.tatdataapi.io/assets/dc46f6aa-0d50-454c-995f-caa7e89ab605.jpeg,สวนดอกเบญจมาศบิ๊กเต้,237.0,สระบุรี,1911.0,มวกเหล็ก,191104.0,หนองย่างเสือ,2024-11-07T08:58:04.391Z
16534,น้ำตกเจ็ดสาวน้อย,,สถานที่ท่องเที่ยว,3,14.72530,101.18855,18180,https://dmc.tatdataapi.io/assets/c13d8a02-c353-4dd1-93d9-b5bcaa92b551.jpeg,น้ำตกเจ็ดสาวน้อย,237.0,สระบุรี,1911.0,มวกเหล็ก,191101.0,มวกเหล็ก,2024-11-07T08:45:06.587Z
6630,องค์การส่งเสริมกิจการโคนมแห่งประเทศไทย (อ.ส.ค.),ตั้งอยู่เลขที่ 160 ริมทางหลวงหมายเลข 2 (ถนนมิตรภาพ) ช่วงกิโลเมตรที่ 34 ฝั่งขาเข้ากรุงเทพฯ ตำบลมิตรภาพ บนเนื้อที่ 4.16 ตารางกิโลเมตร,สถานที่ท่องเที่ยว,3,14.63511,101.20413,18180,https://dmc.tatdataapi.io/assets/ca799a0a-81a3-46ba-b071-93390f4686fd.jpg,,237.0,สระบุรี,1911.0,มวกเหล็ก,191102.0,มิตรภาพ,2024-11-07T07:34:26.393Z
2256,วัดพระพุทธบาทราชวรมหาวิหาร,ตั้งอยู่ตำบลขุนโขลน เป็นพระอารามหลวงชั้นเอก ชนิดราชวรมหาวิหาร สร้างขึ้นเมื่อปี พ.ศ. 2167 ในสมัยสมเด็จพระเจ้าทรงธรรม แห่งกรุงศรีอยุธยา ด้วยเพราะมีการค้นพบรอยพระพุทธบาทซึ่งเป็นรอยที่ประทับไว้บนแผ่นดินเหนือไหล่เขาสุวรรณบรรพต รอยพระบาท กว้าง 21 นิ้ว ยาว 60 นิ้ว และลึก 11 นิ้ว สมเด็จพระเจ้าทรงธรรมทรงเห็นว่าเป็นรอยพระบาทตามลักษณะ 108 ประการ จึงโปรดเกล้าฯ ให้สร้างวัดและมณฑปชั่วคราวครอบรอยพระพุทธบาทไว้ ต่อมาได้มีการสร้างต่อเติมกันอีกหลายสมัย,สถานที่ท่องเที่ยว,3,14.71843,100.78868,18120,https://dmc.tatdataapi.io/assets/157b74bb-fb18-4c86-8598-059aabae11f6.jpeg,วัดพระพุทธบาทราชวรมหาวิหาร,237.0,สระบุรี,1909.0,พระพุทธบาท,190902.0,ขุนโขลน,2024-11-07T06:35:33.565Z
12821,สวนพฤกษศาสตร์พุแค,,สถานที่ท่องเที่ยว,3,14.66989,100.88414,18240,https://dmc.tatdataapi.io/assets/88d509ae-0c62-4307-9204-2229b0188b00.jpg,สวนพฤกษศาสตร์พุแค,237.0,สระบุรี,1913.0,เฉลิมพระเกียรติ,191304.0,พุแค,2024-11-07T06:29:35.645Z
33658,ตลาดต้าน้ำโบราณบ้านต้นตาล,ตั้งอยู่ริมแม่น้ำป่าสัก ใกล้วัดต้นตาล ตำบลต้นตาล เป็นตลาดนัดพื้นบ้านแบบทางเหนือของชาวไทยวน ซึ่งอยู่ไม่ไกลจากกรุงเทพฯ ชาวไทยวนที่นี่อพยพจากเชียงแสนมาอาศัยอยู่ริมแม่น้ำป่าสักบริเวณนี้มากกว่า 200 ปี และยังคงรักษาขนบธรรมเนียมประเพณีต่าง ๆ เอาไว้   ,สถานที่ท่องเที่ยว,3,14.55147,100.88004,18160,https://dmc.tatdataapi.io/assets/0215f028-d88e-4799-b437-67a78fca5896.jpeg,,237.0,สระบุรี,1910.0,เสาไห้,191006.0,ต้นตาล,2024-11-05T04:04:48.190Z
2260,วัดพระพุทธฉาย,ตั้งอยู่เชิงเขาพุทธฉาย ตำบลหนองปลาไหล เป็นวัดเก่าแก่ที่มีอายุยาวนานกว่า 400 ปี ,สถานที่ท่องเที่ยว,3,14.45923,100.94868,18000,https://dmc.tatdataapi.io/assets/6e5f0bf8-6400-4fea-9ee6-94c4cb2d8fa6.jpeg,วัดพระพุทธฉาย,237.0,สระบุรี,1901.0,เมืองสระบุรี,190111.0,หนองปลาไหล,2024-11-05T03:56:50.900Z
24779,อุทยานแห่งชาติแก่งกรุง,อุทยานแห่งชาติแก่งกรุง  ครอบคลุมพื้นที่อำเภอท่าชนะ อำเภอไชยา อำเภอท่าฉาง และอำเภอวิภาวดี ลักษณะภูมิประเทศเป็นทิวเขาสลับซับซ้อนวางตัวในแนวทิศเหนือ-ทิศใต้ ปกคลุมด้วยป่าดิบชื้นที่อุดมสมบูรณ์ มีสัตว์ป่าชุกชุม มียอดเขาสูงที่สุด คือ ยอดเขาแดน มีความสูงประมาณ 849 เมตร จากระดับน้ำทะเล มีทรัพยากรแร่สำคัญที่พบมากในพื้นที่ คือ แร่ดีบุก และมีพันธุ์ไม้ยืนต้นที่มีมูลค่าทางเศรษฐกิจที่พบมาก คือ ไม้หลุมพอ ไม้ตะเคียน ไม้จำปา นอกจากนี้ยังเป็นป่าต้นน้ำของคลองยัน ซึ่งเป็นต้นน้ำของแม่น้ำพุมดวงและแม่น้ำตาปี ,สถานที่ท่องเที่ยว,3,9.30940,98.86638,84150,https://dmc.tatdataapi.io/assets/a6e804bb-e4a9-4781-84b0-64c6c2fbdb11.jpg,อุทยานแห่งชาติแก่งกรุง,354.0,สุราษฎร์ธานี,8411.0,ท่าฉาง,841106.0,ปากฉลุย,2024-11-05T03:26:22.915Z
11625,เขื่อนรัชชประภา (เขื่อนเชี่ยวหลาน),"ตั้งอยู่ตำบลเขาพัง เริ่มก่อสร้างเมื่อปี พ.ศ. 2525 และเริ่มผลิตกระแสไฟฟ้าเมื่อปี พ.ศ. 2530 เป็นเขื่อนหินแกนดินเหนียว มีความสูง 94 เมตร ความยาวสันเขื่อน 761 เมตร ความกว้างสันเขื่อน 12 เมตร สามารถเก็บกักน้ำได้สูงสุด 5,639 ล้านลูกบาศก์เมตร พื้นที่บริเวณสันเขื่อนและช่องทางระบายน้ำอยู่ภายใต้การดูแลของการไฟฟ้าฝ่ายผลิตแห่งประเทศไทย และพื้นที่ภายในเขื่อนอยู่ภายใต้การดูแลของอุทยานแห่งชาติเขาสก น้ำในเขื่อนนอกจากใช้ผลิตกระแสไฟฟ้า ยังใช้ประโยชน์ด้านเกษตรกรรม ประมง และด้านการท่องเที่ยว",สถานที่ท่องเที่ยว,3,8.97294,98.80667,84230,https://dmc.tatdataapi.io/assets/441b33fb-2788-4646-a4f4-9779389b73f0.jpg,"เขื่อนเชี่ยวหลาน ,เขื่อนรัชชประภา ,สุราษฎร์ธานี",354.0,สุราษฎร์ธานี,8409.0,บ้านตาขุน,840904.0,เขาพัง,2024-10-29T07:51:45.786Z
8992,สวนสมุนไพรสมเด็จพระเทพรัตนราชสุดาฯ สยามบรมราชกุมาร,"บริษัท ปตท. จำกัด (มหาชน) สร้างสวนสมุนไพรแห่งนี้ขึ้นภายใต้แนวคิด มิติการเรียนรู้ด้านสมุนไพรอย่างสนุกสนาน เป็นแหล่งรวบรวมพันธุ์สมุนไพรมากกว่า 20,000 ต้น",สถานที่ท่องเที่ยว,3,12.76834,101.16802,21180,https://dmc.tatdataapi.io/assets/24cd9860-fbd0-468c-9098-46bc94caa0a6.jpeg,,465.0,ระยอง,2108.0,นิคมพัฒนา,210802.0,มาบข่า,2024-10-18T03:30:26.102Z
23713,อุทยานแห่งชาติเขาสก,อุทยานแห่งชาติเขาสก  ดินแดนศูนย์กลางของ “ขุนเขาแห่งป่าฝน” เป็นผืนป่าดิบชื้นผืนใหญ่ที่สุดของภาคใต้ รวมพื้นที่เหนืออ่างเก็บน้ำเขื่อนรัชชประภาแล้วมีพื้นที่ประมาณ 738.74 ตารางกิโลเมตร สภาพภูมิประเทศโดยทั่วไปเป็นภูเขาดินและภูเขาหินปูนสูงสลับซับซ้อน เป็นป่าดงดิบที่สมบูรณ์และเป็นป่าต้นน้ำสำคัญของแม่น้ำตาปี มีความหลากหลายของระบบนิเวศ มีนกที่หายากและใกล้สูญพันธุ์ เช่น นกแต้วแร้วอกเขียว นกแต้วแร้วลาย เป็นต้น ทั้งมีพรรณไม้หายากหลายชนิด บางชนิดเป็นพืชเฉพาะถิ่น ได้แก่ ปาล์มหลังขาว ปาล์มพระราหู และบัวผุด,สถานที่ท่องเที่ยว,3,8.91651,98.52809,84250,https://dmc.tatdataapi.io/assets/38e9b556-aa77-4ef6-a4da-a5405d6cc643.jpg,"สุราษฎร์ธานี,อุทยานแห่งชาติเขาสก",354.0,สุราษฎร์ธานี,8410.0,พนม,841003.0,คลองศก,2024-10-04T07:48:40.549Z
23341,อุทยานแห่งชาติคลองพนม,มีพื้นที่ประมาณ 410.4 ตารางกิโลเมตร ลักษณะภูมิประเทศเป็นภูเขาหินปูนเรียงรายคล้ายแนวกำแพงขนาดใหญ่ เป็นป่าดงดิบที่อุดมสมบูรณ์และเป็นป่าต้นน้ำสำคัญของแม่น้ำตาปี,สถานที่ท่องเที่ยว,3,8.88085,98.67441,84250,https://dmc.tatdataapi.io/assets/947c7d4b-77e9-4ee9-85e0-37cd9c4014d6.jpg,"สุราษฎร์ธานี,อุทยานแห่งชาติ,อุทยานแห่งชาติคลองพนม",354.0,สุราษฎร์ธานี,8410.0,พนม,841003.0,คลองศก,2024-10-04T07:25:41.723Z
27379,สวนสนุกดรีมเวิลด์,สวนสนุกดรีมเวิลด์ “สุข สนุก ทั้งครอบครัว” เป็นสวนสนุกกลางแจ้งขนาดใหญ่ในประเทศไทย บนเนื้อที่ถึง 160 ไร่ ที่รองรับลูกค้าทุกเพศทุกวัยให้มาพักผ่อน,สถานที่ท่องเที่ยว,3,13.98769,100.67484,12130,https://dmc.tatdataapi.io/assets/7d4bc459-3345-47f5-95d2-9f754e0df436.jpg,สวนสนุกดรีมเวิลด์,227.0,ปทุมธานี,1303.0,ธัญบุรี,130302.0,บึงยี่โถ,2024-10-04T03:34:34.988Z
33498,พิพิธภัณฑ์เซรามิกธนบดี,,สถานที่ท่องเที่ยว,3,18.28024,99.51299,52000,https://dmc.tatdataapi.io/assets/43671408-6cad-424d-8f9c-9c1e6ac69eda.jpg,"พิพิธภัณฑ์เซรามิกธนบดี,ลำปาง",104.0,ลำปาง,5201.0,เมืองลำปาง,520105.0,พระบาท,2024-10-04T03:10:56.551Z
33287,หอดูดาวเฉลิมพระเกียรติ 7 รอบ พระชนมพรรษา สงขลา,เป็นแหล่งท่องเที่ยวและศูนย์การเรียนรู้ดาราศาสตร์สำหรับประชาชนและสถานศึกษาท้องถิ่น สนับสนุนการบริการวิชาการด้านดาราศาสตร์แก่ชุมชนและเป็นศูนย์การเรียนรู้ด้านดาราศาสตร์มุสลิมแห่งแรกของไทย โดยแบ่งออกเป็นอาคารต่าง ๆ อาทิ อาคารนิทรรศการ อาคารฉายดาว ระเบียงดูดาว เป็นพื้นที่จัดกิจกรรมดาราศาสตร์ สามารถสังเกตการณ์ท้องฟ้าได้อย่างใกล้ชิด ท้องฟ้าจำลอง จัดแสดงภาพยนตร์ดาราศาสตร์พร้อมเรียนรู้ระบบสุริยและกลุ่มดาว โดยจัดแสดงเป็นรอบ ๆ ละ 1 ชั่วโมง. ,สถานที่ท่องเที่ยว,3,7.15811,100.61085,90000,https://dmc.tatdataapi.io/assets/e24f450c-12be-4435-b64f-f93a8cc05f44.jpeg,"ใต้,ภาคใต้,ท่องเที่ยว,ดูดาว,ท้องฟ้าจำลอง,เมืองสงขลา,สงขลา,หอดูดาว,อำเภอเมืองสงขลา",353.0,สงขลา,9001.0,เมืองสงขลา,900102.0,เขารูปช้าง,2024-10-04T02:55:31.414Z
31663,ป่าต้นน้ำบ้านน้ำราด,,สถานที่ท่องเที่ยว,3,8.84234,98.96486,84180,https://dmc.tatdataapi.io/assets/10bb5126-dd62-49cb-9751-ce88f6f9f92b.jpg,"ป่าต้นน้ำบ้านน้ำราด,สุราษฎร์ธานี",354.0,สุราษฎร์ธานี,8408.0,คีรีรัฐนิคม,840810.0,บ้านทำเนียบ,2024-10-03T06:47:38.409Z
9384,สยามนิรมิต ภูเก็ต,,สถานที่ท่องเที่ยว,3,7.93182,98.37722,83000,https://dmc.tatdataapi.io/assets/4ae06cf4-8caf-4346-9797-4cc5b6db36b7.jpg,"สยามนิรมิต,การแสดงภูเก็ต,ประสบการณ์ทางวัฒนธรรม,ประวัติศาสตร์ไทย,กิจกรรมตามปรศิลปะการแสดงะเพณี,กิจกรรมตามประเพณี,ศิลปะการแสดง,หมู่บ้านไทย,อาหารริมทาง,เทคนิคพิเศษ,มรดกทางศิลปะ",350.0,ภูเก็ต,8301.0,เมืองภูเก็ต,830103.0,เกาะแก้ว,2024-10-01T07:48:57.970Z
3614,วัดเขาสุวรรณประดิษฐ์,ตั้งอยู่หมู่ที่ 8 ตำบลดอนสัก เดิมเรียกว่า “วัดเขาล้าน” เมื่อเข้าไปในวัดจะพบกับ มณฑปหลวงพ่อจ้อย ภายในมีโลงแก้วที่บรรจุสรีระสังขารของพระกิตติมงคลพิพัฒน์หรือหลวงพ่อจ้อย อดีตเจ้าอาวาสของวัด เพื่อให้ศิษยานุศิษย์กราบไหว้สักการะ ถัดเข้ามาด้านในวัดจะพบซุ้มประตู บริเวณด้านในของซุ้มประตูเป็นที่ตั้งของ อนุสาวรีย์พระวรวงศ์เธอพระองค์เจ้าวิภาวดีรังสิต ถัดไปมีบันไดเดินเท้าขึ้นสู่ยอดเขาและยังมีทางถนนคอนกรีตที่สามารถขับรถยนต์ขึ้นไปบนยอดเขาได้ ด้านบนของวัดมีลานจอดรถรองรับ ,สถานที่ท่องเที่ยว,3,9.32203,99.68354,84220,https://dmc.tatdataapi.io/assets/80534dfd-df5b-4f12-9890-e022d5152e38.jpeg,วัดเขาสุวรรณประดิษฐ์,354.0,สุราษฎร์ธานี,8403.0,ดอนสัก,840301.0,ดอนสัก,2024-10-01T04:35:27.922Z
20784,เกาะแรต,ตั้งอยู่หมู่ที่ 3 ตำบลดอนสัก เป็นเกาะขนาดเล็กที่อยู่ห่างจากชายฝั่งอำเภอดอนสักประมาณ 500 เมตร ส่วนที่เรียกกันว่า “เกาะแรต” เพราะเรียกตามชื่อต้นไม้ท้องถิ่นที่อยู่บนเกาะที่ชื่อว่า “ต้นขี้แรด” ชาวบ้านส่วนใหญ่บนเกาะมีเชื้อสายจีนไหหลำที่อพยพมาตั้งบ้านเรือนบนเกาะนี้กว่า 200 ปี มาแล้ว วิถีชีวิตของชาวบ้านที่นี่จึงมีวัฒนธรรมแบบจีน สะท้อนผ่านการสร้างบ้านเรือนแบบไม้เป็นแถวตลอดจนศาลเจ้าจีน,สถานที่ท่องเที่ยว,3,9.33123,99.70387,84220,https://dmc.tatdataapi.io/assets/7258ebc1-4ce5-4af7-8b3c-0670e3d8812c.jpeg,"เกาะแรต,ดอนสัก,สุราษฎร์ธานี",354.0,สุราษฎร์ธานี,8403.0,ดอนสัก,840301.0,ดอนสัก,2024-10-01T03:17:37.267Z
31910,แหล่งทอผ้าพื้นเมืองบ้านโคกหม้อ,,สถานที่ท่องเที่ยว,3,15.53344,99.90141,61120,https://dmc.tatdataapi.io/assets/6c7aa6a4-7249-4a51-927a-ad6f03e2b0e8.jpeg,แหล่งทอผ้าพื้นเมืองบ้านโคกหม้อ,116.0,อุทัยธานี,6102.0,ทัพทัน,610205.0,โคกหม้อ,2024-09-30T08:46:51.022Z
33590,ฝายกั้นน้ำปางสวรรค์,,สถานที่ท่องเที่ยว,3,15.19591,99.42620,61140,https://dmc.tatdataapi.io/assets/b4c45eb8-8829-432d-9ef3-b14d1d76d4f7.jpeg,ฝายกั้นน้ำปางสวรรค์,116.0,อุทัยธานี,6106.0,บ้านไร่,610604.0,คอกควาย,2024-09-30T08:42:42.108Z
33662,ต้นไม้ยักษ์,,สถานที่ท่องเที่ยว,3,15.07004,99.50888,61140,https://dmc.tatdataapi.io/assets/7e4a5d6d-583c-4b84-b03f-a69cbbc7253d.jpeg,ต้นไม้ยักษ์,116.0,อุทัยธานี,6106.0,บ้านไร่,610601.0,บ้านไร่,2024-09-30T08:39:25.314Z
4036,วัดจันทาราม (วัดท่าซุง),,สถานที่ท่องเที่ยว,3,15.32772,100.07300,61000,https://dmc.tatdataapi.io/assets/ebb197a0-69ee-46ad-bb1d-c19146a92b42.jpeg,,116.0,อุทัยธานี,6101.0,เมืองอุทัยธานี,610102.0,น้ำซึม,2024-09-30T08:38:49.713Z
1035,วัดอุโปสถาราม,เดิมชื่อวัดโบสถ์มโนรมย์ ชาวบ้านเรียกว่าวัดโบสถ์ เป็นวัดเก่าแก่อยู่ริมลำน้ำสะแกกรังในเขตเทศบาลเมือง จากตลาดสดเทศบาล มีสะพานข้ามแม่น้ำไปยังวัดอุโบสถาราม ซึ่งตั้งอยู่บนฝั่งตะวันออกของแม่น้ำ,สถานที่ท่องเที่ยว,3,15.38498,100.03045,61000,https://dmc.tatdataapi.io/assets/dd6cac51-b025-4a99-976e-316633051865.jpeg,,116.0,อุทัยธานี,6101.0,เมืองอุทัยธานี,610101.0,อุทัยใหม่,2024-09-30T08:37:37.135Z
5270,ถนนคนเดินตรอกโรงยา,,สถานที่ท่องเที่ยว,3,15.38162,100.02813,61000,https://dmc.tatdataapi.io/assets/cced1cf5-ada8-4074-b679-bc01a836ed94.jpeg,ถนนคนเดินตรอกโรงยา,116.0,อุทัยธานี,6101.0,เมืองอุทัยธานี,610101.0,อุทัยใหม่,2024-09-30T08:36:03.669Z
1752,วัดสังกัสรัตนคีรี,ภายในวิหารเป็นที่ประดิษฐานพระพุทธมงคลศักดิ์สิทธิ์ ซึ่งเป็นพระพุทธรูปคู่บ้านคู่เมืองอุทัยธานี,สถานที่ท่องเที่ยว,3,15.37508,100.01727,61000,https://dmc.tatdataapi.io/assets/fc990599-5b4d-45b8-8edd-3bd9ab6bf652.jpeg,วัดสังกัสรัตนคีรี,116.0,อุทัยธานี,6101.0,เมืองอุทัยธานี,610102.0,น้ำซึม,2024-09-30T08:34:32.102Z
33326,อำเภอลับแล,,สถานที่ท่องเที่ยว,3,17.65140,100.03920,53130,https://dmc.tatdataapi.io/assets/668bdb18-7c1e-45de-88b4-56b48a6804fe.jpeg,อำเภอลับแล,117.0,อุตรดิตถ์,5308.0,ลับแล,530801.0,ศรีพนมมาศ,2024-09-30T08:22:14.545Z
6805,เถ้าฮงไถ่,ผลิตและจำหน่ายเครื่องปั้นดินเผาที่สร้างสรรค์หลากหลายรูปแบบ สำหรับตกแต่งและใช้สอย,สถานที่ท่องเที่ยว,3,13.54471,99.80447,70000,https://dmc.tatdataapi.io/assets/bcfbf173-cc7f-46ed-a65f-6824145ac0f3.jpeg,,232.0,ราชบุรี,7001.0,เมืองราชบุรี,700101.0,หน้าเมือง,2024-09-09T03:53:28.797Z
33504,พิพิธภัณฑ์การเรียนรู้เมืองลำปาง,พิพิธภัณฑ์การเรียนรู้เมืองลำปาง หรือมิวเซียมลำปาง ตั้งอยู่ถนนไปรษณีย์ ตำบลสวนดอก เป็นหนึ่งในต้นแบบของการสร้างสรรค์แหล่งเรียนรู้ในรูปแบบของพิพิธภัณฑ์การเรียนรู้ ประเภทพิพิธภัณฑ์เมือง ซึ่งบริหารจัดการโดยเทศบาลนครลำปาง,สถานที่ท่องเที่ยว,3,18.29010,99.50324,52000,,"พิพิธภัณฑ์การเรียนรู้เมืองลำปาง,ลำปาง",104.0,ลำปาง,5201.0,เมืองลำปาง,520102.0,หัวเวียง,2024-07-15T05:28:28.461Z
25607,ห้วยจอกหลวง,เป็นแหล่งอนุรักษ์ต้นน้ำ มีการปลูกดอกไม้เมืองหนาวหลายชนิดและออกดอกในฤดูหนาว ตั้งอยู่บนภูเขาและมีทิวทัศน์สวยงามมาก,สถานที่ท่องเที่ยว,3,19.35889,98.43667,58130,,"แม่ฮ่องสอน,ห้วยจอกหลวง",106.0,แม่ฮ่องสอน,5803.0,ปาย,580301.0,เวียงใต้,2024-07-15T05:28:27.860Z
15715,บ่อน้ำร้อนหนองแห้ง,,สถานที่ท่องเที่ยว,3,18.65687,97.94518,58140,,"บ่อน้ำร้อนหนองแห้ง,แม่ฮ่องสอน",106.0,แม่ฮ่องสอน,5802.0,ขุนยวม,580203.0,เมืองปอน,2024-07-15T05:28:27.228Z
16393,น้ำตกแม่อูคอ,เป็นน้ำตกชั้นเดียว สูงประมาณ 30 เมตร ตกจากร่องหินขนาดใหญ่ ตอนกลางของสายน้ำมีร่องหินกว้าง,สถานที่ท่องเที่ยว,3,18.88921,98.07883,58140,,"น้ำตกแม่อูคอ,แม่ฮ่องสอน",106.0,แม่ฮ่องสอน,5802.0,ขุนยวม,580206.0,แม่อูคอ,2024-07-15T05:28:26.557Z
18471,อุทยานแห่งชาติแม่เงา,มีลักษณะพื้นที่สูงชัน มียอดเขาสูง เช่น ดอยปุยหลวง ดอยเซอเทอลู่ ดอยคุยหลวง มีแม่น้ำหลายสายไหลผ่าน แต่ที่น่าสนใจจะเป็นแม่น้ำเงา เป็นลำน้ำที่ใสสะอาดมาก และมีทัศนียภาพที่สวยงาม,สถานที่ท่องเที่ยว,3,17.84710,97.97675,58110,,"แม่ฮ่องสอน,อุทยานแห่งชาติแม่เงา",106.0,แม่ฮ่องสอน,5806.0,สบเมย,580604.0,แม่สวด,2024-07-15T05:28:25.951Z
16392,น้ำตกแม่เย็น,สำหรับนักท่องเที่ยวที่มีเวลาและมีความอดทนสูง เพราะต้องเดินทางเท้าเป็นระยะทางค่อนข้างไกล แต่คุ้มค่ากับความเหนื่อย,สถานที่ท่องเที่ยว,3,19.36216,98.46349,58130,,"น้ำตกแม่เย็น,แม่ฮ่องสอน",106.0,แม่ฮ่องสอน,5803.0,ปาย,580304.0,แม่ฮี้,2024-07-15T05:28:25.349Z
16382,น้ำตกผาบ่อง,,สถานที่ท่องเที่ยว,3,19.19249,97.99698,58000,,"น้ำตกผาบ่อง,แม่ฮ่องสอน",106.0,แม่ฮ่องสอน,5801.0,เมืองแม่ฮ่องสอน,580103.0,ผาบ่อง,2024-07-15T05:28:24.758Z
16414,น้ำตกดาวดึงส์,เป็นน้ำตกที่สวยงามมากแห่งหนึ่ง อยู่ในเขตบ้านทุ่งรวงทอง ตำบล แม่ลาน้อย ห่างจากอำเภอไปประมาณ 6 กิโลเมตร สายน้ำไหลผ่านซอกหินลดหลั่นกันเป็นชั้น โดยเฉพาะในหน้าน้ำหรือฤดูฝน,สถานที่ท่องเที่ยว,3,18.33674,97.93837,58120,,"น้ำตกดาวดึงส์,แม่ฮ่องสอน",106.0,แม่ฮ่องสอน,5805.0,แม่ลาน้อย,580501.0,แม่ลาน้อย,2024-07-15T05:28:24.170Z
6847,ถ้ำแม่ละนา,,สถานที่ท่องเที่ยว,3,19.57457,98.21583,58150,,"ถ้ำแม่ละนา,แม่ฮ่องสอน",106.0,แม่ฮ่องสอน,5807.0,ปางมะผ้า,580702.0,ปางมะผ้า,2024-07-15T05:28:23.483Z
24266,บ้านกะเหรี่ยงแม่สะกั๊วะ,เรือนแถบเชิงเขาดูแปลกตา ในฤดูแล้งจะมองเห็นภาพดอกไม้ป่า ใบไม้เป็นสีส้มสวยงามมาก มีแหล่งน้ำตกใกล้หมู่บ้าน,สถานที่ท่องเที่ยว,3,18.34892,98.00915,58120,,"บ้านกะเหรี่ยงแม่สะกั๊วะ,แม่ฮ่องสอน",106.0,แม่ฮ่องสอน,5805.0,แม่ลาน้อย,580503.0,ท่าผาปุ้ม,2024-07-15T05:28:22.861Z
18447,ศูนย์ศิลปาชีพบ้านกะเหรี่ยงแม่ปิง,ภาษาพูดและการแต่งกาย อีกทั้งงานหัตถกรรมทอผ้ายังคงไว้แบบเดิม งานทอผ้านี้เป็นที่มาของโครงการศูนย์ศิลปาชีพในพระบรมราชินูปถัมภ์,สถานที่ท่องเที่ยว,3,19.28799,98.46706,58130,,"แม่ฮ่องสอน,ศูนย์ศิลปาชีพบ้านกะเหรี่ยงแม่ปิง",106.0,แม่ฮ่องสอน,5803.0,ปาย,580304.0,แม่ฮี้,2024-07-15T05:28:22.278Z
14033,ศูนย์วิจัยและพัฒนาการเกษตรแพร่,,สถานที่ท่องเที่ยว,3,18.25893,100.13936,54170,,"แพร่,ศูนย์วิจัยและพัฒนาการเกษตรแพร่",113.0,แพร่,5401.0,เมืองแพร่,540113.0,วังหงส์,2024-07-15T05:28:21.571Z
17845,อ่างเก็บน้ำแม่สอง,,สถานที่ท่องเที่ยว,3,18.49764,100.23274,54120,,"แพร่,อ่างเก็บน้ำแม่สอง",113.0,แพร่,5406.0,สอง,540604.0,เตาปูน,2024-07-15T05:28:20.972Z
16394,น้ำตกแม่พุงหลวง,,สถานที่ท่องเที่ยว,3,17.88220,99.52303,54160,,"น้ำตกแม่พุงหลวง,แพร่",113.0,แพร่,5407.0,วังชิ้น,540705.0,แม่พุง,2024-07-15T05:28:20.379Z
31572,บ้านแม่พุงหลวง,,สถานที่ท่องเที่ยว,3,17.87751,99.52948,54160,,"บ้านแม่พุงหลวง,แพร่",113.0,แพร่,5407.0,วังชิ้น,540705.0,แม่พุง,2024-07-15T05:28:19.487Z
2096,วัดพระธาตุดงลาน,,สถานที่ท่องเที่ยว,3,18.10082,99.86808,54150,,"แพร่,วัดพระธาตุดงลาน",113.0,แพร่,5403.0,ลอง,540302.0,บ้านปิน,2024-07-15T05:28:18.909Z
11548,ไร่ชนิกา,เป็นไร่มะขามหวานที่เก่าแก่และใหญ่ที่สุดแห่งหนึ่งของ จ.เพชรบูรณ์ ภายในไร่ล้วนแต่มีต้นมะขามขนาดสูงใหญ่,สถานที่ท่องเที่ยว,3,15.75311,101.01087,67160,,"เพชรบูรณ์,ไร่ชนิกา",110.0,เพชรบูรณ์,6708.0,บึงสามพัน,670801.0,ซับสมอทอด,2024-07-15T05:28:18.247Z
8288,สวนภูพนา,สวนภูพนา เป็นแหล่งท่องเที่ยวเชิงเกษตรที่น่าสนใจของอำเภอน้ำหนาว มีแปลงปลูกดอกหน้าวัวจำนวนมาก โดยเฉพาะหน้าวัวพันธุ์พลายชุมพลจากสวนภูพนาแห่งนี้ยังได้รับรางวัลชนะเลิศการประกวดไม้ดอกไม้ประดับ ในงานมหกรรมพืชสวนโลกที่ จังหวัดเชียงใหม่,สถานที่ท่องเที่ยว,3,16.78312,101.65300,67260,,"เพชรบูรณ์,สวนภูพนา",110.0,เพชรบูรณ์,6709.0,น้ำหนาว,670901.0,น้ำหนาว,2024-07-15T05:28:17.614Z
27404,ดงรอยเท้าไดโนเสาร์,พบรอยเท้าไดโนเสาร์บนหน้าผาหินทราย บริเวณเชิงเขาในเขตป่าสงวนแห่งชาติเขตรอยต่อกับป่าอุทยานแห่งชาติน้ำหนาว ในขณะที่ส่วนปลายมีร่องรอยของเล็บที่แหลมคม ซึ่งเป็นลักษณะของไดโนเสาร์กินเนื้อ เดินด้วยสองขาหลังเป็นหลัก,สถานที่ท่องเที่ยว,3,16.76833,101.67167,67260,,"ดงรอยเท้าไดโนเสาร์,เพชรบูรณ์",110.0,เพชรบูรณ์,6709.0,น้ำหนาว,670901.0,น้ำหนาว,2024-07-15T05:28:16.883Z
8305,สวนป่าหิมพานต์,,สถานที่ท่องเที่ยว,3,16.78719,101.02853,67280,,"เพชรบูรณ์,สวนป่าหิมพานต์",110.0,เพชรบูรณ์,6711.0,เขาค้อ,671102.0,แคมป์สน,2024-07-15T05:28:16.288Z
31726,พุน้ำร้อนน้ำแร่บ้านครู,,สถานที่ท่องเที่ยว,3,15.56157,101.04955,67180,,"พุน้ำร้อนน้ำแร่บ้านครู,เพชรบูรณ์",110.0,เพชรบูรณ์,6705.0,วิเชียรบุรี,670508.0,พุขาม,2024-07-15T05:28:15.641Z
2598,วัดป่าภูทับเบิก,,สถานที่ท่องเที่ยว,3,16.92848,101.12818,67120,,"เพชรบูรณ์,วัดป่าภูทับเบิก",110.0,เพชรบูรณ์,6704.0,หล่มเก่า,670407.0,วังบาล,2024-07-15T05:28:15.031Z
16364,น้ำตกไผ่สีทอง,,สถานที่ท่องเที่ยว,3,16.73057,100.56747,65130,,"น้ำตกไผ่สีทอง,พิษณุโลก",112.0,พิษณุโลก,6508.0,วังทอง,650808.0,วังนกแอ่น,2024-07-15T05:28:14.329Z
1505,วัดศรีศรัทธาราม,,สถานที่ท่องเที่ยว,3,16.58484,100.21704,66220,,"พิจิตร,วัดศรีศรัทธาราม",111.0,พิจิตร,6607.0,สามง่าม,660702.0,กำแพงดิน,2024-07-15T05:28:13.681Z
32984,พิพิธภัณฑ์ล้านปี,,สถานที่ท่องเที่ยว,3,19.54202,100.30260,56110,,"พะเยา,พิพิธภัณฑ์ล้านปี",109.0,พะเยา,5603.0,เชียงคำ,560301.0,หย่วน,2024-07-15T05:28:13.009Z
567,เขตรักษาพันธุ์สัตว์ป่าเวียงลอ,,สถานที่ท่องเที่ยว,3,19.27978,100.15249,56150,,"เขตรักษาพันธุ์สัตว์ป่าเวียงลอ,พะเยา",109.0,พะเยา,5602.0,จุน,560202.0,จุน,2024-07-15T05:28:12.331Z
31903,บ้านดอนมูล,,สถานที่ท่องเที่ยว,3,19.05151,100.77264,55140,,"น่าน,บ้านดอนมูล",108.0,น่าน,5506.0,ท่าวังผา,550606.0,ศรีภูมิ,2024-07-15T05:28:11.702Z
31875,บ้านหาดผาขน,,สถานที่ท่องเที่ยว,3,18.88454,100.79863,55000,,"น่าน,บ้านหาดผาขน",108.0,น่าน,5514.0,ภูเพียง,551405.0,เมืองจัง,2024-07-15T05:28:11.101Z
10932,หมู่บ้านไทลื้อหนองบัว,บ้านหนองบัว ตำบลป่าคา จากตัวเมืองน่านใช้ทางหลวงหมายเลข 1080 ระยะ ทาง 41 กิโลเมตร ก่อนถึงอำเภอท่าวังผามีทางแยก ซ้ายไปอีก 3 กิโลเมตร ,สถานที่ท่องเที่ยว,3,19.08891,100.78606,55120,,"น่าน,หมู่บ้านไทลื้อหนองบัว",108.0,น่าน,5506.0,ท่าวังผา,550602.0,ป่าคา,2024-07-15T05:28:10.443Z
31856,ตลาดชายแดนบ้านห้วยโก๋น,,สถานที่ท่องเที่ยว,3,19.59631,101.08562,55130,,"ตลาดชายแดนบ้านห้วยโก๋น,น่าน",108.0,น่าน,5515.0,เฉลิมพระเกียรติ,551501.0,ห้วยโก๋น,2024-07-15T05:28:09.857Z
16353,น้ำตกภูฟ้า,เป็นน้ำตกที่สูงที่สุดในเขตอุทยานแห่งชาติดอยภูคา สูงประมาณ 140 เมตร มีทั้งหมด 12 ชั้น ใช้เวลาไป-กลับ ชมน้ำตก 3 วัน 2 คืน ควรติดต่อเจ้าหน้าที่นำทาง,สถานที่ท่องเที่ยว,3,19.20571,101.07985,55120,,"น่าน,น้ำตกภูฟ้า",108.0,น่าน,5505.0,ปัว,550511.0,ภูคา,2024-07-15T05:28:09.234Z
14284,ถ้ำผาฆ้อง,ต้องเดินเท้าผ่านป่าร่มรื่นเข้าไปประมาณ 3.5 กิโลเมตร เป็นน้ำตกขนาดกลางบริเวณปากถ้ำจะมีขนาดเล็ก ในถ้ำมีคูหาซึ่งมีหินงอกหินย้อย มีทางน้ำไหลผ่าน,สถานที่ท่องเที่ยว,3,19.18110,101.04419,55120,,"ถ้ำผาฆ้อง,น่าน",108.0,น่าน,5505.0,ปัว,550511.0,ภูคา,2024-07-15T05:28:08.648Z
7732,น้ำตกตาดม่าน,,สถานที่ท่องเที่ยว,3,19.28787,100.78665,55160,,"น่าน,น้ำตกตาดม่าน",108.0,น่าน,5509.0,เชียงกลาง,550909.0,พระพุทธบาท,2024-07-15T05:28:08.065Z
21651,คุ้มเจ้าราชบุตร,,สถานที่ท่องเที่ยว,3,18.77755,100.77204,55000,,"คุ้มเจ้าราชบุตร,น่าน",108.0,น่าน,5501.0,เมืองน่าน,550101.0,ในเวียง,2024-07-15T05:28:06.755Z
19996,ถนนคนเดินกาดข่วงเมืองน่าน,,สถานที่ท่องเที่ยว,3,18.77534,100.77170,55000,,"ถนนคนเดินกาดข่วงเมืองน่าน,น่าน",108.0,น่าน,5501.0,เมืองน่าน,550101.0,ในเวียง,2024-07-15T05:28:05.530Z
2006,วัดภูเก็ต,,สถานที่ท่องเที่ยว,3,19.16524,100.93403,55120,,"น่าน,วัดภูเก็ต",108.0,น่าน,5505.0,ปัว,550514.0,วรนคร,2024-07-15T05:28:04.873Z
27224,ดงแม่นางเมือง,,สถานที่ท่องเที่ยว,3,16.01717,100.00372,60180,,"ดงแม่นางเมือง,นครสวรรค์",107.0,นครสวรรค์,6005.0,บรรพตพิสัย,600508.0,ตาสัง,2024-07-15T05:28:04.167Z
23585,เขาพระเจดีย์,อยู่ที่อำเภอตาคลี ถนนราดยางห่างจากอำเภอประมาณ 5 กิโลเมตร ห่างจากจังหวัด 80 กิโลเมตร,สถานที่ท่องเที่ยว,3,15.62175,100.12484,60000,,"เขาพระเจดีย์,นครสวรรค์",107.0,นครสวรรค์,6007.0,ตาคลี,600701.0,ตาคลี,2024-07-15T05:28:03.553Z
16341,น้ำตกซับสมบูรณ์,,สถานที่ท่องเที่ยว,3,15.53959,100.77748,60220,,"นครสวรรค์,น้ำตกซับสมบูรณ์",107.0,นครสวรรค์,6009.0,ไพศาลี,600906.0,วังข่อย,2024-07-15T05:28:02.856Z
2037,วัดพรหมนิมิต, จากทางหลวงหมายเลข 32 ขึ้นสะพานต่างระดับอินทร์บุรี -ตากฟ้า ระยะทางประมาณ 18 กิโลเมตร ต่อจากนั้นให้ข้ามคลองชลประทานชัยนาท-ป่าสัก ระยะทางประมาณ 1 กิโลเมตร,สถานที่ท่องเที่ยว,3,15.15566,100.41835,60210,,"นครสวรรค์,วัดพรหมนิมิต",107.0,นครสวรรค์,6007.0,ตาคลี,600702.0,ช่องแค,2024-07-15T05:28:02.203Z
3198,วัดมหาโพธิใต้,,สถานที่ท่องเที่ยว,3,15.81669,100.08177,60230,,"นครสวรรค์,วัดมหาโพธิใต้",107.0,นครสวรรค์,6006.0,เก้าเลี้ยว,600601.0,มหาโพธิ,2024-07-15T05:28:01.536Z
23573,เขาพระ-เขาสูง,,สถานที่ท่องเที่ยว,3,15.86500,100.58611,60110,,"เขาพระ-เขาสูง,นครสวรรค์",107.0,นครสวรรค์,6004.0,หนองบัว,600402.0,หนองกลับ,2024-07-15T05:28:00.898Z
31557,ศูนย์แสดงเครื่องปั้นดินเผาบ้านมอญ,,สถานที่ท่องเที่ยว,3,15.70500,100.13750,60000,,"นครสวรรค์,ศูนย์แสดงเครื่องปั้นดินเผาบ้านมอญ",107.0,นครสวรรค์,6001.0,เมืองนครสวรรค์,600101.0,ปากน้ำโพ,2024-07-15T05:28:00.241Z
14405,ศาลาที่ประทับ ร.5 หน้าวัดเขื่อนแดง,,สถานที่ท่องเที่ยว,3,15.66859,100.10318,60000,,"นครสวรรค์,ศาลาที่ประทับ ร.5 หน้าวัดเขื่อนแดง",107.0,นครสวรรค์,6001.0,เมืองนครสวรรค์,600106.0,นครสวรรค์ตก,2024-07-15T05:27:59.491Z
12318,สวนกล้วยไม้พิไลพร,หมู่ 12 บ้านวังยาง ตำบลตะเคียนเลื่อน มีเนื้อที่ประมาณ 20 ไร่ ชมการปลูกเลี้ยง และจำหน่ายพันธุ์กล้วยไม้สกุลต่าง ๆ ,สถานที่ท่องเที่ยว,3,15.63751,100.03634,60000,,"นครสวรรค์,สวนกล้วยไม้พิไลพร",107.0,นครสวรรค์,6001.0,เมืองนครสวรรค์,600105.0,ตะเคียนเลื่อน,2024-07-15T05:27:58.711Z
6879,ถ้ำเขาจั๊กจั่น,,สถานที่ท่องเที่ยว,3,15.59588,99.54571,60150,,"ถ้ำเขาจั๊กจั่น,นครสวรรค์",107.0,นครสวรรค์,6015.0,ชุมตาบง,601501.0,ชุมตาบง,2024-07-15T05:27:57.874Z
8554,สระทะเล,ตั้งอยู่หลังโรงพยาบาลตาคลี ห่างจากตัวอำเภอประมาณ 3 กิโลเมตร ห่างจากตัวจังหวัด 94 กิโลเมตร เป็นสวนสาธารณะ มีสระน้ำตามธรรมชาติ ทัศนียภาพสวยงาม เป็นสถานที่พักผ่อนหย่อนใจของชาวอำเภอตาคลี,สถานที่ท่องเที่ยว,3,15.23922,100.34919,60140,,"นครสวรรค์,สระทะเล",107.0,นครสวรรค์,6007.0,ตาคลี,600701.0,ตาคลี,2024-07-15T05:27:56.890Z
16306,น้ำตกวังน้ำวิ่ง,ตั้งอยู่ที่ตำบลลำพยนต์ ห่างจากตัวจังหวัดประมาณ 100 กิโลเมตร ตามเส้นทางสายตากฟ้า-โคกสำโรง ก่อนถึงวัดถ้ำพรสวรรค์ประมาณ 2 กิโลเมตร เลี้ยวซ้ายจากถนนเข้าไปประมาณ 700 เมตร,สถานที่ท่องเที่ยว,3,15.33597,100.55993,60190,,"นครสวรรค์,น้ำตกวังน้ำวิ่ง",107.0,นครสวรรค์,6012.0,ตากฟ้า,601202.0,ลำพยนต์,2024-07-15T05:27:55.939Z
6990,ชุมชนชาวไทยทรงดำบ้านไผ่สิงห์,จากคำบอกเล่าของชาวบ้านบริเวณนี้กล่าวว่า ในอดีตพื้นที่แห่งนี้เป็นที่ดอน มีป่าไผ่ และสัตว์ป่านานาชนิดอาศัยอยู่เป็นจำนวนมาก มีนายพรานชื่อ สิงห์ ผู้มีความชำนาญในการดำรงชีพในป่าได้มาพักอาศัยอยู่บริเวณป่าแห่งนี้เป็นคนแรก,สถานที่ท่องเที่ยว,3,15.85179,100.36071,60120,,"ชุมชนชาวไทยทรงดำบ้านไผ่สิงห์,นครสวรรค์",107.0,นครสวรรค์,6003.0,ชุมแสง,600310.0,ไผ่สิงห์,2024-07-15T05:27:55.182Z
2967,วัดหนองกลับ,"ตั้งอยู่ที่หมู่ 3 ตำบลหนองกลับ ชาวบ้านส่วนใหญ่เรียกกันว่า ""วัดหนองกลับ"" สร้างขึ้นเมื่อ พ.ศ. 2363 ในสมัยรัชกาลที่ 2 เป็นที่ประดิษฐานรูปหล่อ ""หลวงพ่อเดิม"" ขนาดเท่าองค์จริง",สถานที่ท่องเที่ยว,3,15.86478,100.58189,60110,,"นครสวรรค์,วัดหนองกลับ",107.0,นครสวรรค์,6004.0,หนองบัว,600402.0,หนองกลับ,2024-07-15T05:27:54.566Z
15365,ศาลพระเจ้าจี้กง,,สถานที่ท่องเที่ยว,3,19.46341,99.70270,57120,,"เชียงราย,ศาลพระเจ้าจี้กง",102.0,เชียงราย,5705.0,พาน,570509.0,ม่วงคำ,2024-07-15T05:27:53.290Z
16318,วนอุทยานน้ำตกตาดควัน,,สถานที่ท่องเที่ยว,3,20.01469,100.18952,57290,,"เชียงราย,วนอุทยานน้ำตกตาดควัน",102.0,เชียงราย,5712.0,พญาเม็งราย,571205.0,ตาดควัน,2024-07-15T05:27:52.694Z
23523,เขตรักษาพันธุ์สัตว์ป่าเขาสนามเพรียง,"ประวัติความเป็นมา เขตรักษาพันธุ์สัตว์ป่าเขาสนามเพรียงเป็นพื้นที่ล้อมรอบไปด้วยเทือกเขาต่างๆมีพื้นที่รวมกันประมาณ 101 ตารางกิโลเมตร หรือประมาณ 63,125 ไร่ด้วยสภาพภูมิประเทศ ที่สวยงามและเป็นที่อยู่อาศัยของสัตว์ป่า ทางจังหวัดกำแพงเพชรจึงจัดให้เป็นพื้นที่เพื่อการอนุรักษ์ทรัพยากรธรรมชาติ และแหล่งท่องเที่ยว โดยประกาศให้เป็นเป็นอุทยานเขาสนในวันที่ 1 มีนาคม 2527 

ต่อมาทางราชการได้เห็นความสำคัญของพื้นที่ดังกล่า จึงได้จัดตั้งให้เป็นเขตรักษาพันธุ์สัตว์ป่าเขาสนามเพรียง พ.ศ. 2528 โดยรอบเป็นพื้นที่เกษตรกรรมและมีประชาชนกระจายอยู่ล้อมรอบส่วนพื้นที่ของเขตรักษาพันธุ์สัตว์ป่าเขาสนามเพรียงเป็นที่ราบสูงถึงเขาสูงชัน ภูเขาที่สำคัญ ได้แก่ เขาสนามเพรียงเขาสน เขาคันนา เขากิ่วยาว และเขาเจดีย์ ยอดเขาที่สูงที่สุดคือยอดเขาสน มีความสูง 852 เมตรจากระดับน้ำทะเลปานกลาง สภาพป่ายังสมบูรณ์ เป็นแหล่งต้นน้ำลำธารหลายสายคลองหนองประจักษ์คลองวังชมพูและห้วยต่างๆมากมายไหลลงสู่แม่น้ำปิงผ่านพื้นที่เกษตรกรรมทั่วไป",สถานที่ท่องเที่ยว,3,16.59391,99.30574,62000,,,103.0,กำแพงเพชร,6211.0,โกสัมพีนคร,621101.0,โกสัมพี,2024-07-15T05:27:52.052Z
29295,ศาลเจ้าแม่ทับทิมท่าฬ่อ,ตั้งอยู่ริมแม่น้ำน่านฝั่งตะวันออก เป็นศาลเจ้าศักดิ์สิทธิ์ที่ชาวพิจิตรเคารพนับถือและเป็นสถานที่สอนหนังสือให้แก่บุตรหลานในหมู่บ้านที่ชาวบ้านเรียกว่า “โรงเรียนยกเอ็ง” ภายในศาลมีองค์เจ้าแม่ทับทิม (ตุ้ยบ่วยเต่งเหนี่ยง) เป็นองค์ประธาน ด้านขวาเป็นที่ประทับของเจ้าพ่อกวนอู ด้านซ้ายเป็นที่ประทับของเจ้าพ่อปุ้นเถ่ากงและปุ้นเถ่าม่า,สถานที่ท่องเที่ยว,3,16.51133,100.32744,66000,https://dmc.tatdataapi.io/assets/8c2a65c3-0dbc-4b15-913a-3ecc1f4abd18.jpg,ศาลเจ้าแม่ทับทิมท่าฬ่อ,111.0,พิจิตร,6601.0,เมืองพิจิตร,660104.0,ท่าฬ่อ,2024-07-15T05:27:51.257Z
30175,บึงสีไฟ,เป็นแหล่งน้ำจืดขนาดใหญ่เป็นอันดับ 5 ของประเทศไทย รองจากบึงบอระเพ็ด ทะเลสาบ หนองหาน บึงละหาน และกว๊านพะเยา ตามลำดับ มีเนื้อที่ประมาณ 8.62 ตารางกิโลเมตร เป็นแหล่งเพาะพันธุ์ปลาน้ำจืดและแหล่งอาศัยของนกหลายชนิด อีกทั้งยังเป็นสถานที่พักผ่อนหย่อนใจของประชาชนทั่วไป บึงสีไฟถือได้ว่าเป็นสัญลักษณ์แห่งแรกของจังหวัดพิจิตร ,สถานที่ท่องเที่ยว,3,16.42620,100.34103,66000,https://dmc.tatdataapi.io/assets/f8764cd2-e723-472c-9e45-59ec8745800c.jpg,บึงสีไฟ,111.0,พิจิตร,6601.0,เมืองพิจิตร,660101.0,ในเมือง,2024-07-15T05:27:50.303Z
31110,ป่าสนวัดจันทร์,สนที่ขึ้นที่นี่เป็นสนเขา ทั้งสนสองใบและสามใบ ผู้สนใจมาหาประสบการณ์ท่องเที่ยวที่นี่ นำจักรยานมาปั่นได้จะดีมากเพราะอากาศที่นี่เย็นสบายตลอดปี ทิวทัศน์เป็นป่าสนสวยงาม หรือจะนำเรือยางมาพายในทะเลสาบที่นี่ก็ได้,สถานที่ท่องเที่ยว,3,19.08074,98.33285,58130,https://dmc.tatdataapi.io/assets/203e1ab9-42c5-46d0-aada-31d8bc4dedf1.jpeg,,101.0,เชียงใหม่,5025.0,กัลยาณิวัฒนา,502501.0,บ้านจันทร์,2024-07-15T05:27:49.598Z
3237,วัดมหาธาตุยุวราชรังสฤษฎิ์ ราชวรมหาวิหาร,ตั้งอยู่ริมท้องสนามหลวง ถนนท่าพระจันทร์ (ใกล้กับมหาวิทยาลัยธรรมศาตร์) เป็นพระอารามหลวงฝ่ายมหานิกายชั้นเอก เดิมชื่อว่า วัดสลัก,สถานที่ท่องเที่ยว,3,13.75513,100.49094,10200,https://dmc.tatdataapi.io/assets/5e97decf-60ea-422b-9f33-662f5f78f2bf.jpeg,วัดมหาธาตุ,219.0,กรุงเทพมหานคร,1001.0,พระนคร,100101.0,พระบรมมหาราชวัง,2024-07-15T05:27:48.281Z
4464,วัดอัปสรสวรรค์วรวิหาร,ตั้งอยู่ที่แขวงปากคลองภาษีเจริญ เขตภาษีเจริญ สามารถเดินทางโดยเรือล่องมาตามคลองบางกอกใหญ่ เดิมชื่อ วัดหมู มีมาตั้งแต่สมัยอยุธยา ได้รับการปฏิสังขรณ์ขึ้นใหม่ในสมัยรัชกาลที่ 3,สถานที่ท่องเที่ยว,3,13.72003,100.46989,10160,https://dmc.tatdataapi.io/assets/a355a030-09d6-40ac-b1c5-ca28a5af6552.jpeg,,219.0,กรุงเทพมหานคร,1022.0,ภาษีเจริญ,102209.0,ปากคลองภาษีเจริญ,2024-07-15T05:27:47.645Z
19406,ถ้ำเลเขากอบ,ถ้ำเลเขากอบ หนึ่งในความอัศจรรย์ที่ได้รับเลือกให้เป็น Unseen Thailand จังหวัดตรัง,สถานที่ท่องเที่ยว,3,7.79183,99.57396,92130,https://dmc.tatdataapi.io/assets/9acb5e76-418d-4100-92cf-3d7a21cff14c.jpg,,355.0,ตรัง,9206.0,ห้วยยอด,920607.0,เขากอบ,2024-07-15T05:27:47.004Z
33598,ปราสาทหินพันยอด,ปราสาทหินพันยอด ตำบลปากน้ำ อำเภอละงู จังหวัดสตูล มีลักษณะเป็นเกาะภูเขาหินปูนขนาดใหญ่อยู่ไม่ไกลจากฝั่ง เวลาน้ำทะเลลดสามารถพายเรือลอดช่องหินเข้าไปชมความงามของปราสาทหินพันยอดได้อย่างอัศจรรย์,สถานที่ท่องเที่ยว,3,6.85295,99.69533,91110,https://dmc.tatdataapi.io/assets/3e8a5393-dd43-427f-862d-2bc77d40ccbc.jpeg,,352.0,สตูล,9105.0,ละงู,910504.0,ปากน้ำ,2024-07-15T05:27:46.331Z
17141,อุทยานแห่งชาติหมู่เกาะช้าง,,สถานที่ท่องเที่ยว,3,12.07874,102.36936,23170,https://dmc.tatdataapi.io/assets/6e2d7ec3-e302-4534-8e2b-0774f1e8bd77.jpeg,"ตราด,อุทยานแห่งชาติหมู่เกาะช้าง ",466.0,ตราด,2307.0,เกาะช้าง,230701.0,เกาะช้าง,2024-07-15T05:27:45.720Z
1931,วัดราชบพิธสถิตมหาสีมาราม,อยู่ที่ถนนเฟื่องนคร เป็นวัดที่มีเสมาขนาดใหญ่ทำเป็นเสาศิลาสลักรูปเสมาธรรมจักรอยู่บนเสาตั้งอยู่ที่กำแพงวัดทั้ง 8 ทิศ บริเวณวัดนี้เดิมเป็นวังของพระบรมวงศ์เธอกรมหลวงบดินทรไพศาลโสภณ,สถานที่ท่องเที่ยว,3,13.74913,100.49734,10200,https://dmc.tatdataapi.io/assets/f27157a2-7f3e-418f-84e2-96712e66b65e.jpeg,,219.0,กรุงเทพมหานคร,1001.0,พระนคร,100103.0,วัดราชบพิธ,2024-07-15T05:27:45.029Z
20250,ศาลกรมหลวงชุมพรเขตอุดมศักดิ์ และเรือหลวงพระร่วง,"ตั้งอยู่บนเนินเขาทางตอนเหนือต้นหาดทรายรี ตำบลหาดทรายรี
สร้างขึ้นเพื่อเป็นอนุสรณ์สถานของพลเรือเอก พระเจ้าบรมวงศ์เธอ กรมหลวงชุมพรเขตอุดมศักดิ์ องค์พระบิดาของทหารเรือไทย หรือที่ประชาชนทั่วไปมักเรียกพระองค์ท่านว่า “เสด็จเตี่ย” นอกจากนี้พระองค์ยังได้ทรงศึกษาวิชาแพทย์แผนโบราณอย่างจริงจังจนสามารถรักษาโรคภัยไข้เจ็บได้ จึงทรงรับรักษาผู้ป่วยในนาม “หมอพร” โดยไม่คิดค่าใช้จ่ายใด ๆ",สถานที่ท่องเที่ยว,3,10.39957,99.27973,86120,https://dmc.tatdataapi.io/assets/15651492-571d-4913-810d-476b9cc49762.jpeg,"เรือหลวงพระร่วง,ศาลกรมหลวงชุมพรเขตอุดมศักดิ์",343.0,ชุมพร,8601.0,เมืองชุมพร,860116.0,หาดทรายรี,2024-07-15T05:27:42.530Z
1654,วัดศรีบึงบูรพ์,,สถานที่ท่องเที่ยว,3,15.34138,104.05542,33220,https://dmc.tatdataapi.io/assets/72ae1483-7e5a-4a5d-8a02-87aaee46452a.jpeg,วัดศรีบึงบูรพ์,585.0,ศรีสะเกษ,3311.0,บึงบูรพ์,331102.0,บึงบูรพ์,2024-07-15T05:27:41.819Z
4057,วัดเจดีย์หลวงวรวิหาร,,สถานที่ท่องเที่ยว,3,18.78695,98.98743,50200,https://dmc.tatdataapi.io/assets/d415ef45-99ba-4a87-909b-4653ebd2bca3.jpg,,101.0,เชียงใหม่,5001.0,เมืองเชียงใหม่,500102.0,พระสิงห์,2024-07-15T05:27:40.043Z
32708,อ่างกาหลวง,อ่างกาหลวง เส้นทางศึกษาธรรมชาติบนยอดดอยอินทนนท์ ,สถานที่ท่องเที่ยว,3,18.58846,98.48610,50270,https://dmc.tatdataapi.io/assets/341953a2-8a04-4415-86fc-57e465b3130d.jpeg,,101.0,เชียงใหม่,5003.0,แม่แจ่ม,500301.0,ช่างเคิ่ง,2024-07-15T05:27:39.416Z
21482,เกาะอาดัง,,สถานที่ท่องเที่ยว,3,6.50845,99.30465,91000,https://dmc.tatdataapi.io/assets/f24cd62b-9ff7-4a63-bdd5-997bfa7671e2.jpeg,,352.0,สตูล,9101.0,เมืองสตูล,910106.0,เกาะสาหร่าย,2024-07-15T05:27:38.784Z
30257,สะพานข้ามแม่น้ำแคว,,สถานที่ท่องเที่ยว,3,14.04087,99.50370,71000,https://dmc.tatdataapi.io/assets/8077f14a-4470-44af-9515-1c286bf90299.jpeg,,222.0,กาญจนบุรี,7101.0,เมืองกาญจนบุรี,710104.0,ท่ามะขาม,2024-07-15T05:27:38.184Z
33660,ต้นจามจุรียักษ์,"ตั้งอยู่ตำบลเกาะสำโรง เรียกอีกชื่อหนึ่งว่าต้นก้ามปูยักษ์ มีพื้นที่พุ่มไม้ประมาณ 2,400 ตารางเมตรเป็นต้นไม้ขนาดใหญ่ที่มีอายุยาวนานมากกว่า 100 ปี",สถานที่ท่องเที่ยว,3,13.95526,99.52701,71000,https://dmc.tatdataapi.io/assets/e5d313ac-ad69-4e80-b031-948a86d848e4.jpeg,ต้นจามจุรียักษ์,222.0,กาญจนบุรี,7101.0,เมืองกาญจนบุรี,710111.0,เกาะสำโรง,2024-07-15T05:27:37.464Z
33365,สุสานทหารสัมพันธมิตรดอนรัก,สุสานทหารสัมพันธ์มิตรดอนรัก หรือ “สุสานทหารสหประชาชาติ” หรือที่ชาวบ้านเรียกว่า “ป่าช้าอังกฤษ” ตั้งอยู่ริมถนนแสงชูโต ก่อนเข้าตัวเมืองกาญจนบุรี,สถานที่ท่องเที่ยว,3,14.03168,99.52555,71000,https://dmc.tatdataapi.io/assets/b34dd514-f99b-4682-9990-04a3db03d1e0.jpeg,สุสานทหารสัมพันธมิตรดอนรัก,222.0,กาญจนบุรี,7101.0,เมืองกาญจนบุรี,710101.0,บ้านเหนือ,2024-07-15T05:27:36.592Z
21300,เกาะเขาใหญ่ และ ปราสาทหินพันยอด,อยู่ห่างจากท่าเรือปากบาราประมาณ 3 กิโลเมตร จุดเด่นของเกาะเขาใหญ่ คือ ปฏิมากรรมธรรมชาติที่คล้ายกับปราสาทหิน มีสะพานธรรมชาติยื่นโค้งไปในทะเล ยามน้ำลดสามารถพายเรือลอดได้,สถานที่ท่องเที่ยว,3,6.83327,99.69137,91110,https://dmc.tatdataapi.io/assets/5f2f5e63-5fa2-478b-bc1b-9b5194193b0b.jpeg,"เกาะ,เขาหินปูน,ใต้,ทะล,ปราสาทหิน,ปราสาทหินพันยอด,ภาคใต้,สตูล,หมู่เกาะเภตรา,อุทยานแห่งชาติ,อุทยานแห่งชาติหมู่เกาะเภตรา",352.0,สตูล,9105.0,ละงู,910504.0,ปากน้ำ,2024-07-15T05:27:35.993Z
23539,อุทยานแห่งชาติเขาใหญ่,,สถานที่ท่องเที่ยว,3,14.43256,101.37178,26000,https://dmc.tatdataapi.io/assets/802d108a-65a7-48db-a67a-6c2ee1a7dd81.jpeg,,224.0,นครนายก,2601.0,เมืองนครนายก,260111.0,หินตั้ง,2024-07-15T05:27:35.094Z
931,วัดยานนาวา,ตั้งอยู่ที่ถนนเจริญกรุง แขวงยานนาวา มีพระเจดีย์ฐานเป็นสำเภาขนาดเท่าสำเภาจริง สร้างขึ้นในสมัยรัชกาลที่ 3 ,สถานที่ท่องเที่ยว,3,13.71733,100.51355,10120,https://dmc.tatdataapi.io/assets/a6ee794b-998f-42c6-b8e2-e48d2d2693d3.jpeg,,219.0,กรุงเทพมหานคร,1028.0,สาทร,102802.0,ยานนาวา,2024-07-15T05:27:34.510Z
5794,ศาลเจ้าพ่อเสือ,"ลักษณะอาคารสร้างตามรูปแบบศาลเจ้าที่นิยมทางภาคใต้ของจีน เทพเจ้าประจำศาล คือ ""เสียนเทียนซั่งตี้"" หรือ ""เจ้าพ่อเสือ""",สถานที่ท่องเที่ยว,3,13.75385,100.49832,10200,https://dmc.tatdataapi.io/assets/42ea5f17-62a4-4eb1-a972-eb4056b4a49e.jpeg,,219.0,กรุงเทพมหานคร,1001.0,พระนคร,100105.0,ศาลเจ้าพ่อเสือ,2024-07-15T05:27:33.895Z
1142,วัดเทวราชกุญชรวรวิหาร,อยู่ในเขตดุสิต สร้างตั้งแต่สมัยกรุงศรีอยุธยา ภายในพระอุโบสถมีพระประธาน นามว่า พระพุทธเทวราชปฎิมากร เป็นพระพุทธรูปปางมารวิชัย ศิลปะทวาราวดี,สถานที่ท่องเที่ยว,3,13.77230,100.50196,10300,https://dmc.tatdataapi.io/assets/4b7a404e-fe58-4228-96b2-be31313d09c6.jpeg,,219.0,กรุงเทพมหานคร,1002.0,ดุสิต,100202.0,วชิรพยาบาล,2024-07-15T05:27:33.089Z
1927,วัดราชโอรสาราม ราชวรวิหาร,ตั้งอยู่ริมคลองสนามชัย ฝั่งตะวันตก เขตจอมทอง ทางรถยนต์ใช้เส้นทางถนนเอกชัย-จอมทอง ทางเรือสามารถเช่าเรือหางยาวนำเที่ยวจากท่าช้างได้ ,สถานที่ท่องเที่ยว,3,13.70288,100.46431,10150,https://dmc.tatdataapi.io/assets/cd383d0b-2f66-4a64-9c79-eeefef9ed0e8.jpeg,,219.0,กรุงเทพมหานคร,1035.0,จอมทอง,103501.0,บางขุนเทียน,2024-07-15T05:27:32.500Z
31788,วิสาหกิจชุมชนท่องเที่ยวบ้านน้ำเชี่ยว ,,สถานที่ท่องเที่ยว,3,12.18930,102.45646,23120,https://dmc.tatdataapi.io/assets/a5722d48-7179-432a-b5ea-48f8fab69730.jpeg,"ตราด,บ้านน้ำเชี่ยว ,วิสาหกิจชุมชนท่องเที่ยว,วิสาหกิจชุมชนท่องเที่ยวบ้านน้ำเชี่ยว ",466.0,ตราด,2305.0,แหลมงอบ,230502.0,น้ำเชี่ยว,2024-07-15T05:27:31.890Z
21458,อนุสรณ์สถานยุทธนาวีที่เกาะช้าง,ตั้งอยู่ตำบลแหลมงอบ อนุสาวรีย์กรมหลวงชุมพรเขตอุดมศักดิ์ผันพระพักตร์ไปยังบริเวณยุทธนาวีเกาะช้าง บริเวณและอาคารพิพิธภัณฑ์ตกแต่งคล้ายเรือรบ ด้านในพิพิธภัณฑ์จัดแสดงข้อมูลประวัติศาสตร์ของกรมหลวงชุมพรเขตอุดมศักดิ์ ประวัติการสู้รบของกองทัพเรือไทยกับกองกำลังเรือรบของฝรั่งเศส,สถานที่ท่องเที่ยว,3,11.95710,102.43335,23170,https://dmc.tatdataapi.io/assets/29cd7106-455f-4fb7-9aea-ebbcc0bcc7bb.jpeg,,466.0,ตราด,2307.0,เกาะช้าง,230702.0,เกาะช้างใต้,2024-07-15T05:27:31.232Z
10455,หาดทรายดำ,,สถานที่ท่องเที่ยว,3,12.16936,102.40695,23120,https://dmc.tatdataapi.io/assets/b4660925-c885-49e6-bcc8-2391869836e9.jpeg,"ตราด,หาดทรายดำ",466.0,ตราด,2305.0,แหลมงอบ,230501.0,แหลมงอบ,2024-07-15T05:27:30.555Z
33245,จุดชมวิวแหลมงอบ,,สถานที่ท่องเที่ยว,3,12.16986,102.39238,23120,https://dmc.tatdataapi.io/assets/c8c86120-3a67-4fbe-bedf-2c60abf79591.jpeg,"ตราด,จุดชมวิว,จุดชมวิวแหลมงอบ,แหลมงอบ",466.0,ตราด,2305.0,แหลมงอบ,230501.0,แหลมงอบ,2024-07-15T05:27:29.959Z
6382,ส่วนที่แคบที่สุดในประเทศไทย,,สถานที่ท่องเที่ยว,3,11.71991,102.90762,23110,https://dmc.tatdataapi.io/assets/d6f5ed99-6720-429a-98c2-447c858f1eb6.jpeg,,466.0,ตราด,2302.0,คลองใหญ่,230203.0,หาดเล็ก,2024-07-15T05:27:29.362Z
18377,วิสาหกิจชุมชนท่องเที่ยวโดยชุมชนตำบลไม้รูด,,สถานที่ท่องเที่ยว,3,11.92403,102.77753,23110,https://dmc.tatdataapi.io/assets/ee6eaf3e-0bcb-465d-b7dd-c50d748df3ce.jpeg,"ตราด,วิสาหกิจชุมชนท่องเที่ยวโดยชุมชนตำบลไม้รูด",466.0,ตราด,2302.0,คลองใหญ่,230202.0,ไม้รูด,2024-07-15T05:27:28.723Z
7122,ศูนย์ราชการุณย์สภากาชาดไทย เขาล้าน,,สถานที่ท่องเที่ยว,3,11.97723,102.76968,23110,https://dmc.tatdataapi.io/assets/556d158c-9b12-4a3a-9016-10d29537901c.jpeg,"เขาล้าน,ตราด,ศูนย์ราชการุณย์สภากาชาดไทย เขาล้าน",466.0,ตราด,2302.0,คลองใหญ่,230202.0,ไม้รูด,2024-07-15T05:27:28.049Z
21322,เกาะขายหัวเราะ,ตั้งอยู่ในบริเวณด้านหลังเกาะกระดาด เป็นเกาะเล็ก ๆ กลางทะเล ที่มีต้นไม้ใหญ่ขึ้นอยู่หนึ่งต้น เสมือนภาพในหนังสือการ์ตูนขายหัวเราะ จึงเป็นที่มาของชื่อเกาะ นักท่องเที่ยวสามารถเดินข้ามจากเกาะกระดาด ไปที่เกาะขายหัวเราะแห่งนี้ได้ในช่วงเวลาที่น้ำลง,สถานที่ท่องเที่ยว,3,11.85858,102.52291,,https://dmc.tatdataapi.io/assets/85f79050-52cc-4b74-9541-a81a5655c183.jpeg,"เกาะขายหัวเราะ ,ตราด",466.0,ตราด,2306.0,เกาะกูด,230601.0,เกาะหมาก,2024-07-15T05:27:27.458Z
11316,สถานแสดงพันธุ์สัตว์น้ำระยอง,สถานที่ศึกษาทดลองและวิจัยเกี่ยวกับสัตว์ทะเลและพรรณไม้น้ำ อีกทั้งเป็นแหล่งรวบรวมพันธุ์สัตว์น้ำที่สวยงามและหายาก รวมทั้งความรู้ทางด้านทรัพยากรสัตว์ทะเลและการประมง,สถานที่ท่องเที่ยว,3,12.61035,101.42499,21160,https://dmc.tatdataapi.io/assets/c7364716-2283-4c8e-9c63-98c6e6a9f57a.jpeg,,465.0,ระยอง,2101.0,เมืองระยอง,210105.0,เพ,2024-07-15T05:27:26.807Z
2647,วัดป่าประดู่,,สถานที่ท่องเที่ยว,3,12.68245,101.27969,21000,https://dmc.tatdataapi.io/assets/0cfe6826-0ffb-459e-809b-72d8b56420c2.jpeg,,465.0,ระยอง,2101.0,เมืองระยอง,210101.0,ท่าประดู่,2024-07-15T05:27:26.206Z
3469,วัดโขดทิมธาราม,ตั้งอยู่ที่ตำบลท่าประดู่ สร้างขึ้นเมื่อราว พ.ศ. 2007 ผู้สร้างชื่อทิม เป็นเจ้าเมืองระยองในสมัยนั้น สร้างมาตั้งแต่สมัยกรุงศรีอยุธยาตอนปลาย ภายในอุโบสถมีภาพจิตกรรมฝาผนัง และหลวงพ่อขาวที่เป็นที่เคารพสักการะบูชาของชาวระยอง และมีการจัดงานบูชานมัสการประจำปี ในวันที่ 13-14 เมษายนของทุกปี,สถานที่ท่องเที่ยว,3,12.67941,101.27294,21000,https://dmc.tatdataapi.io/assets/b1f54943-42b4-4856-8da6-eb442e80dad0.jpeg,,465.0,ระยอง,2101.0,เมืองระยอง,210101.0,ท่าประดู่,2024-07-15T05:27:25.613Z
13663,พระเจดีย์กลางน้ำ,ห่างจากตัวเมืองไปทางใต้ 2 กิโลเมตร ใกล้ปากแม่น้ำระยอง องค์พระเจดีย์ตั้งอยู่บนเกาะกลางแม่น้ำระยอง สร้างเมื่อ พ.ศ.2416 โดยพระยาศรีสมุทรโภคชัยโชค ชิตสงคราม (เกตุ ยมจินดา),สถานที่ท่องเที่ยว,3,12.66609,101.24185,21000,https://dmc.tatdataapi.io/assets/0ef66690-0d1f-47e6-893b-eaac69bef5c3.jpeg,,465.0,ระยอง,2101.0,เมืองระยอง,210104.0,ปากน้ำ,2024-07-15T05:27:24.949Z
4425,พิพิธภัณฑ์หนังใหญ่วัดบ้านดอน,ตั้งอยู่ที่วัดบ้านดอน เป็นที่เก็บรักษาตัวหนังใหญ่ มีอายุมากกว่า 200 ปี ที่นำมาจากจังหวัดพัทลุง เมื่อปี พ.ศ. 2431,สถานที่ท่องเที่ยว,3,12.69654,101.29989,21000,https://dmc.tatdataapi.io/assets/2be18c9d-1c9b-48d1-9f2c-212bd4b48ff2.jpeg,,465.0,ระยอง,2101.0,เมืองระยอง,210102.0,เชิงเนิน,2024-07-15T05:27:23.636Z
5858,ทุ่งโปรงทอง,"
",สถานที่ท่องเที่ยว,3,12.70762,101.71172,21170,https://dmc.tatdataapi.io/assets/27e7de84-1698-4e55-9d86-50c2d7e8ca95.jpeg,ทุ่งโปรงทอง,465.0,ระยอง,2103.0,แกลง,210313.0,ปากน้ำกระแส,2024-07-15T05:27:23.028Z
11268,โบราณสถานจวนเรสิดัง กัมปอร์ต,เคยใช้เป็นที่พำนักของข้าหลวงฝรั่งเศส ผู้ได้รับการมอบหมายจากรัฐบาลฝรั่งเศสให้ปกครองจังหวัดตราด ได้กลายเป็นจวนผู้ว่าราชการจังหวัด,สถานที่ท่องเที่ยว,3,12.24218,102.51280,23000,https://dmc.tatdataapi.io/assets/a39bbbe8-0bd6-40b0-bb9b-0a27ae378e72.jpeg,"ตราด,โบราณสถานจวนเรสิดังกัมปอร์ต",466.0,ตราด,2301.0,เมืองตราด,230101.0,บางพระ,2024-07-15T05:27:22.205Z
23746,เขาพะเนินทุ่ง,"เขาพะเนินทุ่ง ตั้งอยู่ในอุทยานแห่งชาติแก่งกระจาน จังหวัดเพชรบุรี ที่นี่ขึ้นชื่อเรื่องทะเลหมอกที่สวยงาม เพราะอยู่สูงจากระดับน้ำทะลประมาณ 1,200 เมตร นักท่องเที่ยวนิยมขึ้นไปชมทะเลหมอกในช่วงเช้าตรู่ โดยเฉพาะช่วงปลายฝนต้นหนาว อากาศจะเย็นสบาย ท้องฟ้าแจ่มใส มีโอกาสเห็นทะเลหมอกหนาแน่นอากาศเย็นสบาย เหมาะแก่การพักผ่อนและชมวิวทิวทัศน์ 360 องศา",สถานที่ท่องเที่ยว,3,12.82533,99.36580,76170,https://dmc.tatdataapi.io/assets/d0d26261-6f17-4ba7-b5c9-e669b3b0162f.jpeg,เขาพะเนินทุ่ง,228.0,เพชรบุรี,7608.0,แก่งกระจาน,760806.0,ห้วยแม่เพรียง,2024-07-15T05:27:21.480Z
24740,เขื่อนแก่งกระจาน,เป็นเขื่อนดินกั้นแม่น้ำเพชรบุรี มีทะเลสาบน้ำจืดขนาดใหญ่ เหมาะสำหรับท่องเที่ยวพักผ่อนหย่อนใจ,สถานที่ท่องเที่ยว,3,12.91696,99.62975,76170,https://dmc.tatdataapi.io/assets/95dfcfaa-6ece-45f7-b446-14c9441d1ed5.jpeg,,228.0,เพชรบุรี,7608.0,แก่งกระจาน,760801.0,แก่งกระจาน,2024-07-15T05:27:20.853Z
24791,อุทยานแห่งชาติแก่งกระจาน,อุทยานแห่งชาติใกล้กรุงเทพฯ ที่จะทำให้คุณได้ดื่มด่ำความงดงามของทะเลหมอกยามเช้าได้เกือบตลอดทั้งปี จากบนยอดเขาพะเนินทุ่งซึ่งได้รับการยกย่องว่าเป็นแหล่งชมทะเลหมอกที่ดีที่สุดของภาคกลาง หรือจะชมพระอาทิตย์ตกที่สันเขาตะนาวศรี ที่นี่เป็นอุทยานที่มีพื้นที่กว้างใหญ่ที่สุดของประเทศไทย ยังคงสภาพเป็นป่าดงดิบตามธรรมชาติที่สมบูรณ์ เป็นแหล่งดูนก ดูทะเลหมอกที่อยู่ไม่ไกลจากกรุงเทพฯ,สถานที่ท่องเที่ยว,3,12.88524,99.63170,76170,https://dmc.tatdataapi.io/assets/54bc1e49-d28d-42d4-960e-4ef6f7d26b40.jpeg,"แก่งกระจาน,เพชรบุรี,อุทยานแห่งชาติแก่งกระจาน",228.0,เพชรบุรี,7608.0,แก่งกระจาน,760801.0,แก่งกระจาน,2024-07-15T05:27:20.004Z
19804,ชุมชนบ้านแหลมมะขาม,,สถานที่ท่องเที่ยว,3,12.17357,102.45056,23120,https://dmc.tatdataapi.io/assets/329b4556-1db9-4aba-8490-011b8fdceab1.jpeg,"ตราด,บ้านแหลมมะขาม ",466.0,ตราด,2305.0,แหลมงอบ,230501.0,แหลมงอบ,2024-07-15T05:27:19.308Z
31218,วิสาหกิจชุมชนท่องเที่ยวบ้านธรรมชาติล่างตำบลคลองใหญ่,ชุมชนบ้านธรรมชาติล่าง ตั้งอยู่ในตำบลคลองใหญ่ มีธรรมชาติที่สมบูรณ์ มีปะการังบก และจุดชมวิว 360 องศา รวมถึงกิจกรรมเชิงสร้างสรรค์หลากหลาย เช่น การทำผ้ามัดย้อมสามป่า เป็นแหล่งผลิตปุ๋ยชีวภาพนาโนของจังหวัด และมีเส้นทางท่องเที่ยวเชิงนิเวศ สร้างรายได้และบริหารโดยชุมชนอย่างยั่งยืน ซึ่งนักท่องเที่ยวจะได้รับความรู้จากปราชญ์ชุมชนเรื่องการทำปุ๋ยชีวภาพนาโน สัมผัสวิถีประมงพื้นบ้าน วิถีชีวิตการลงเรือหากุ้ง หอย ปู ปลา พักโฮมสเตย์ติดทะเล นั่งชมพระอาทิตย์ตกหน้าเกาะช้าง ลิ้มรสอาหารพื้นบ้านปลอดสารพิษ พบหมอชาวบ้านที่ได้รับรางวัลประจำจังหวัดตราด ให้ความรู้ด้านสมุนไพรต่าง ๆ ทั้งยาขับลมแก้ท้องอืด สมุนไพรจากหมามุ่ย เรียนรู้การทำลูกประคบ กิจกรรมล่องเล ลัดเลาะชายฝั่งอ่าวธรรมชาติ ลงสัมผัสหญ้าทะเลซึ่งเป็นกลุ่มของพืชดอกเพียงกลุ่มเดียวที่มีวิวัฒนาการให้สามารถดำรงชีวิตอยู่ได้ในทะเล เป็นต้น ,สถานที่ท่องเที่ยว,3,12.19112,102.30377,23120,https://dmc.tatdataapi.io/assets/9900e29a-a195-4bb8-8695-2fb68b0fea07.jpeg,"ตราด,ตำบลคลองใหญ่ ,บ้านธรรมชาติล่าง,วิสาหกิจชุมชนท่องเที่ยว",466.0,ตราด,2305.0,แหลมงอบ,230507.0,คลองใหญ่,2024-07-15T05:27:18.658Z
29375,นิเวศพิพิธภัณฑ์บ้านช้างทูน,เป็นชุมชนที่นำเสนออัตลักษณ์ของชาติพันธุ์และวิถีนิเวศของกลุ่มชาติพันธ์ุชองในจังหวัดตราดให้เป็นที่รู้จัก กลุ่มชาติพันธุ์ชองเผ่าซัมเร ชนพื้นเมืองดั้งเดิมที่ตั้งรกรากอยู่ในจังหวัดตราด ยังคงมีการสืบทอดวัฒนธรรม ประเพณีที่หาชมยาก ภูมิปัญญาในการนำทรัพยากรธรรมชาติมาใช้ให้เกิดประโยชน์ตามปรัชญาเศรษฐกิจพอเพียง และนำเสนอเรื่องราวประวัติศาสตร์ของอำเภอบ่อไร่ใน “ยุคตื่นพลอย” ให้เป็นกิจกรรมท่องเที่ยวชุมชน เหมาะกับนักท่องเที่ยวที่ต้องการความแปลกใหม่และต้องการท่องเที่ยวอย่างสร้างสรรค์สร้างคุณค่า ,สถานที่ท่องเที่ยว,3,12.61232,102.47859,23140,https://dmc.tatdataapi.io/assets/3a9da8ef-0403-41d8-b092-350f1af8a135.jpeg,"ตราด,นิเวศพิพิธภัณฑ์บ้านช้างทูน,บ้านช้างทูน",466.0,ตราด,2304.0,บ่อไร่,230402.0,ช้างทูน,2024-07-15T05:27:17.968Z
31510,กลุ่มท่องเที่ยวเชิงอนุรักษ์บ้านพุมเรียง ,,สถานที่ท่องเที่ยว,3,9.38099,99.24567,84110,https://dmc.tatdataapi.io/assets/6818ae1d-0868-417b-9b3f-a236d97ae177.jpeg,"กลุ่มท่องเที่ยวเชิงอนุรักษ์บ้านพุมเรียง ,สุราษฎร์ธานี",354.0,สุราษฎร์ธานี,8406.0,ไชยา,840602.0,พุมเรียง,2024-07-15T05:27:16.542Z
33650,ถนนคนเดินตะกั่วป่า,ถนนคนเดินตะกั่วป่า จัดขึ้นทุกวันอาทิตย์ เวลา 15.00-20.00 น. บนถนนศรีตะกั่วป่า มีร้านค้าเปิดจำหน่ายสินค้าหลากหลาย ทั้งอาหารและข้าวของเครื่องใช้ บางช่วงของถนนคนเดินมีการแสดงศิลปวัฒนธรรมทั้งแบบร่วมสมัยและแบบพื้นบ้าน ซึ่งถนนศรีตะกั่วป่าถือเป็นหนึ่งในถนนสายสำคัญและเก่าแก่ของเมือง เพราะในอดีตตะกั่วป่าเป็นเมืองใหญ่ที่มีความเจริญรุ่งเรืองจากชาวต่างชาติที่เข้ามาติดต่อค้าขาย,สถานที่ท่องเที่ยว,3,8.82992,98.36489,82110,https://dmc.tatdataapi.io/assets/a9ad0f54-3068-4583-8ed1-507ba07885e1.jpeg,,348.0,พังงา,8205.0,ตะกั่วป่า,820501.0,ตะกั่วป่า,2024-07-15T05:27:15.913Z
12541,หมู่บ้านพุมเรียงและแหลมโพธิ์,อยู่ที่ตำบลพุมเรียง ห่างจากตัวอำเภอ 7 กิโลเมตร เป็นชุมชนชาวมุสลิมเป็นส่วนใหญ่ ที่มีอาชีพทอผ้าไหม ผ้าไหมพุมเรียงเป็นผ้าทอยกดิ้นเงิน หรือดิ้นทองสวยงาม,สถานที่ท่องเที่ยว,3,9.38708,99.27589,84110,https://dmc.tatdataapi.io/assets/993bd4ee-0532-43ab-934c-19d750c46b0a.jpeg,,354.0,สุราษฎร์ธานี,8406.0,ไชยา,840602.0,พุมเรียง,2024-07-15T05:27:15.328Z
